{"features":[
	{"geometry":{"coordinates":[-1.6422665,53.8369331],"type":"Point"},"properties":{"name":"Base","osm_id":"3886297891","other_tags":{"addr:city":"Leeds","addr:housenumber":"3-5","addr:postcode":"LS18 4AP","addr:street":"Town Street","addr:suburb":"Horsforth","beauty":"tanning;nails;skin_care;waxing","check_date:opening_hours":"2024-02-19","opening_hours":"Tu-We 10:00-17:00; Th 11:00-20:00; Fr 10:30-17:30; Sa 10:00-16:00","opening_hours:signed":"no","phone":"+44 113 258 8425","shop":"beauty","website":"https://www.basebeautysalon.co.uk/"}},"type":"Feature"},
	{"geometry":{"coordinates":[-1.6416429,53.8373339],"type":"Point"},"properties":{"name":"Alanna Eve Hair & Beauty","osm_id":"3886297916","other_tags":{"addr:city":"Leeds","addr:housenumber":"25","addr:postcode":"LS18 5LJ","addr:street":"Town Street","addr:suburb":"Horsforth","contact:facebook":"https://www.facebook.com/people/Alanna-Eve-Hair-Beauty/61556125557922/","contact:instagram":"https://www.instagram.com/alannaevehair/","old_name":"Spider Pie","opening_hours":"Tu,We 09:00-18:00; Th,Fr 09:00-20:00; Sa 09:00-16:00; Su,Mo off","phone":"+44 113 469 5535","shop":"beauty"}},"type":"Feature"},
	{"geometry":{"coordinates":[-1.6400167,53.8380856],"type":"Point"},"properties":{"name":"Pink Nails","osm_id":"3886416657","other_tags":{"addr:city":"Leeds","addr:housenumber":"56","addr:postcode":"LS18 4AP","addr:street":"Town Street","addr:suburb":"Horsforth","contact:facebook":"https://www.facebook.com/pinknails","opening_hours":"Mo-Sa 09:30-18:00; Su off","phone":"+44 113 345 2901","shop":"beauty"}},"type":"Feature"},
	{"geometry":{"coordinates":[-1.6395322,53.8384328],"type":"Point"},"properties":{"name":"Absolute","osm_id":"3886416679","other_tags":{"addr:city":"Leeds","addr:housenumber":"64","addr:postcode":"LS18 4AP","addr:street":"Town Street","addr:suburb":"Horsforth","check_date:opening_hours":"2024-02-19","opening_hours:signed":"no","phone":"+44 113 239 0100","shop":"beauty","website":"http://www.absolutebeautyleeds.com/"}},"type":"Feature"},
	{"geometry":{"coordinates":[-1.6392761,53.8390037],"type":"Point"},"properties":{"name":"Beauty By Emily","osm_id":"3887830129","other_tags":{"addr:city":"Leeds","addr:housenumber":"87","addr:postcode":"LS18 5BP","addr:street":"Town Street","addr:suburb":"Horsforth","check_date:opening_hours":"2025-01-20","opening_hours":"Tu,Fr 10:00-18:00; We-Th 10:00-20:00; Sa 09:00-15:00; Su-Mo closed","phone":"+44 113 258 8120","shop":"beauty","website":"https://beautybyemily.net/"}},"type":"Feature"},
	{"geometry":{"coordinates":[-1.6484405,53.8335037],"type":"Point"},"properties":{"name":"Elvegant","osm_id":"3900180355","other_tags":{"addr:city":"Leeds","addr:housenumber":"261","addr:postcode":"LS18 4DR","addr:street":"New Road Side","shop":"beauty"}},"type":"Feature"},
	{"geometry":{"coordinates":[-1.6441927,53.8321074],"type":"Point"},"properties":{"name":"Mc Aesthetics","osm_id":"3902978494","other_tags":{"addr:city":"Leeds","addr:housenumber":"147","addr:postcode":"LS18 4QD","addr:street":"New Road Side","addr:suburb":"Horsforth","beauty":"skin_care;hair_removal;cosmetics","contact:facebook":"https://www.facebook.com/McAestheticsLtd/","contact:instagram":"https://www.instagram.com/mcaesthetics.uk/","contact:twitter":"https://www.instagram.com/mcaesthetics.uk/","phone":"+44 161 773 3614","shop":"beauty","website":"https://mc-aesthetics.co.uk/"}},"type":"Feature"},
	{"geometry":{"coordinates":[-1.6438113,53.832087],"type":"Point"},"properties":{"name":"Sun Station","osm_id":"3902978498","other_tags":{"addr:city":"Leeds","addr:housenumber":"137","addr:postcode":"LS18 4QD","addr:street":"New Road Side","addr:suburb":"Horsforth","opening_hours":"Mo-Fr 09:00-20:00; Sa 09:00-18:00; Su 10:00-16:00","phone":"+44 113 258 4870","shop":"beauty","website":"http://www.sunstationonline.com/"}},"type":"Feature"},
	{"geometry":{"coordinates":[-1.6434823,53.8320658],"type":"Point"},"properties":{"name":"Scandal","osm_id":"3902978505","other_tags":{"addr:city":"Leeds","addr:housenumber":"129","addr:postcode":"LS18 4QD","addr:street":"New Road Side","addr:suburb":"Horsforth","beauty":"nails","check_date:opening_hours":"2023-01-09","opening_hours:signed":"no","shop":"beauty"}},"type":"Feature"},
	{"geometry":{"coordinates":[-1.6430898,53.8320338],"type":"Point"},"properties":{"name":"Doll Beauty & Aesthetics","osm_id":"3903000731","other_tags":{"addr:city":"Leeds","addr:housenumber":"123","addr:postcode":"LS18 4QD","addr:street":"New Road Side","addr:suburb":"Horsforth","opening_hours":"Tu 10:00-18:00; We 10:00-16:00; Th 10:00-20:00; Sa 09:00-16:00","shop":"beauty"}},"type":"Feature"},
	{"geometry":{"coordinates":[-1.6417243,53.8319905],"type":"Point"},"properties":{"name":"Beauty Within","osm_id":"3904761989","other_tags":{"addr:city":"Leeds","addr:housenumber":"95","addr:postcode":"LS18 4QD","addr:street":"New Road Side","addr:suburb":"Horsforth","check_date:opening_hours":"2023-01-09","opening_hours":"Mo 09:00-18:00; We,Fr 08:00-18:00; Th 08:00-21:00; Sa 09:00-16:00; Su,Tu closed","opening_hours:signed":"no","phone":"+44 113 258 5277","shop":"beauty"}},"type":"Feature"},
	{"geometry":{"coordinates":[-1.6414783,53.8319717],"type":"Point"},"properties":{"name":"Jessica Nails","osm_id":"3904772151","other_tags":{"addr:city":"Leeds","addr:housenumber":"89","addr:postcode":"LS18 4QD","addr:street":"New Road Side","addr:suburb":"Horsforth","beauty":"nails","opening_hours":"Mo-Sa 09:30-18:30; Su 11:00-17:00","shop":"beauty"}},"type":"Feature"},
	{"geometry":{"coordinates":[-1.6412166,53.8321967],"type":"Point"},"properties":{"name":"The Beauty Studio","osm_id":"3916676790","other_tags":{"addr:city":"Leeds","addr:housenumber":"94","addr:postcode":"LS18 4QB","addr:street":"New Road Side","addr:suburb":"Horsforth","opening_hours":"Mo,Th,Fr 09:00-18:00; Tu,We 09:00-21:00; Sa 08:30-16:30; Su closed","phone":"+44 113 2586500","shop":"beauty","website":"https://www.thebeautystudioleeds.co.uk/"}},"type":"Feature"},
	{"geometry":{"coordinates":[-1.6447937,53.83484],"type":"Point"},"properties":{"name":"Tranquility","osm_id":"10858781784","other_tags":{"addr:city":"Leeds","addr:housenumber":"18","addr:postcode":"LS18 4HD","addr:street":"Fink Hill","addr:suburb":"Horsforth","opening_hours":"Tu-We 09:30-15:00; Th 10:00-20:30; Fr 09:30-15:00; Sa 09:00-12:00","shop":"beauty","website":"https://www.tranquilityhorsforth.com/"}},"type":"Feature"}
],"type":"FeatureCollection"}