{"features":[
	{"geometry":{"coordinates":[-1.6334066,53.8457816],"type":"Point"},"properties":{"name":"Alba Tyres","osm_id":"7126021310","other_tags":{"opening_hours":"Mo-Fr 08:30-17:30; Sa 08:30-16:00","shop":"car_parts"}},"type":"Feature"},
	{"geometry":{"coordinates":[-1.6319286,53.8465175],"type":"Point"},"properties":{"name":"Simon Green Motor Engineers","osm_id":"10697262894","other_tags":{"addr:city":"Horsforth","addr:housename":"Park Centre","addr:postcode":"LS18 5NX","addr:street":"Station Road","opening_hours":"Mo-Fr 08:15-17:00","phone":"+44 113 239 0008","shop":"car_repair","website":"https://www.simoncgreen.co.uk/"}},"type":"Feature"},
	{"geometry":{"coordinates":[[[[-1.6283561,53.8426652],[-1.6278804,53.842941],[-1.6277462,53.8428738],[-1.6278072,53.8428331],[-1.6276202,53.8427227],[-1.6279414,53.8425284],[-1.6279983,53.8425572],[-1.6280756,53.8425116],[-1.6283561,53.8426652]]]],"type":"MultiPolygon"},"properties":{"building":"yes","name":"Evans Halshaw","osm_way_id":"381973455","other_tags":{"addr:city":"Horsforth","addr:housenumber":"125","addr:postcode":"LS18 5PX","addr:street":"Low Lane","brand":"Vauxhall","brand:wikidata":"Q59187","opening_hours":"Mo-Fr 08:00-18:00; Sa 08:30-18:00; Su 11:00-17:00","phone":"+44 113 537 0519","website":"https://www.evanshalshaw.com/dealers/vauxhall-horsforth/"},"shop":"car"},"type":"Feature"},
	{"geometry":{"coordinates":[[[[-1.6306162,53.8442151],[-1.6305053,53.8442479],[-1.630282,53.8439844],[-1.630393,53.8439517],[-1.6306162,53.8442151]]]],"type":"MultiPolygon"},"properties":{"building":"yes","name":"Hepworth Select","osm_way_id":"386517617","other_tags":{"addr:city":"Horsforth","addr:postcode":"LS18 5PX","addr:street":"Low Lane","opening_hours":"Mo-Fr 08:30-18:00; Sa 09:00-17:00; Su 10:00-16:00","phone":"+44 113 259 1013","website":"http://www.hepworthselecthorsforth.co.uk/"},"shop":"car"},"type":"Feature"},
	{"geometry":{"coordinates":[[[[-1.6457952,53.8321967],[-1.6455967,53.8321642],[-1.6456354,53.8320819],[-1.6458339,53.8321144],[-1.6457952,53.8321967]]]],"type":"MultiPolygon"},"properties":{"building":"yes","name":"ES Motors","osm_way_id":"386766744","other_tags":{"addr:city":"Horsforth","addr:housenumber":"171","addr:postcode":"LS18 4DR","addr:street":"New Road Side","opening_hours":"Mo-Fr 07:30-17:30; Sa 07:30-14:00; Su Closed","phone":"+44 113 258 7235","website":"http://www.esmotorsvw.co.uk/es-motors-horsforth"},"shop":"car"},"type":"Feature"},
	{"geometry":{"coordinates":[[[[-1.6458339,53.8321144],[-1.6458249,53.8322059],[-1.6456772,53.832361],[-1.6453578,53.832301],[-1.6454923,53.8322367],[-1.6455772,53.8320728],[-1.6456354,53.8320819],[-1.6455967,53.8321642],[-1.6457952,53.8321967],[-1.6458339,53.8321144]]]],"type":"MultiPolygon"},"properties":{"osm_way_id":"386766746","shop":"car"},"type":"Feature"},
	{"geometry":{"coordinates":[[[[-1.6382251,53.8323043],[-1.6379235,53.832068],[-1.6378341,53.8321077],[-1.6378835,53.8321464],[-1.6378289,53.8321707],[-1.6379363,53.8322549],[-1.6379941,53.8322293],[-1.6380491,53.8322724],[-1.6380092,53.8322901],[-1.6380599,53.8323298],[-1.6380966,53.8323135],[-1.6381357,53.8323441],[-1.6382251,53.8323043]]]],"type":"MultiPolygon"},"properties":{"building":"yes","name":"Town Garage","osm_way_id":"389212201","other_tags":{"addr:city":"Horsforth","addr:postcode":"LS18 4NW","addr:street":"Featherbank Lane","opening_hours":"Mo-Fr 08:30-17:00; Sa 08:30-12:00; Su Closed","phone":"+44 113 2582756","website":"https://www.town-garage.com/"},"shop":"car_repair"},"type":"Feature"},
	{"geometry":{"coordinates":[[[[-1.6342229,53.8440963],[-1.6340236,53.8440609],[-1.6339567,53.8441921],[-1.6341559,53.8442275],[-1.6342229,53.8440963]]]],"type":"MultiPolygon"},"properties":{"building":"yes","name":"Purple Dot","osm_way_id":"395055474","other_tags":{"addr:city":"Horsforth","addr:postcode":"LS18 5AP","addr:street":"Long Row","opening_hours":"Mo-Sa 09:00-18:30","phone":"+44 1132 590504","second_hand":"yes","website":"https://www.purple-dot-performance.com/"},"shop":"car"},"type":"Feature"}
],"type":"FeatureCollection"}