{"features":[
	{"geometry":{"coordinates":[-1.6482174,53.8285091],"type":"Point"},"properties":{"amenity":"childcare","name":"Newlaithes Kids Club","osm_id":"6540158118","other_tags":{"addr:city":"Leeds","addr:housename":"Newlaithes Primary School","addr:postcode":"LS18 4PT","addr:street":"Victoria Crescent","addr:suburb":"Horsforth","fhrs:id":"1131651"}},"type":"Feature"},
	{"geometry":{"coordinates":[-1.6390792,53.8396729],"type":"Point"},"properties":{"amenity":"childcare","name":"Time Out After School Club","osm_id":"6540158120","other_tags":{"addr:city":"Leeds","addr:housename":"St Margarets C Of E Primary School","addr:postcode":"LS18 5LB","addr:street":"Town Street","addr:suburb":"Horsforth","fhrs:id":"321301"}},"type":"Feature"},
	{"geometry":{"coordinates":[-1.6392052,53.839608],"type":"Point"},"properties":{"amenity":"childcare","name":"Ducklings At St Margarets","osm_id":"6540158121","other_tags":{"addr:city":"Leeds","addr:housename":"St Margarets C Of E Primary School","addr:postcode":"LS18 5LB","addr:street":"Town Street","addr:suburb":"Horsforth","fhrs:id":"321347"}},"type":"Feature"},
	{"geometry":{"coordinates":[-1.6404496,53.8380083],"type":"Point"},"properties":{"amenity":"childcare","name":"567 Club","osm_id":"9062971842","other_tags":{"addr:city":"Leeds","addr:housenumber":"2nd Floor, above Morrisons","addr:postcode":"LS18 5LE","addr:street":"Town Street","addr:suburb":"Horsforth","email":"info@567club.co.uk","phone":"+44 113 8313318","website":"https://www.567club.co.uk/"}},"type":"Feature"},
	{"geometry":{"coordinates":[[[[-1.6415912,53.847324],[-1.6413134,53.8473258],[-1.6413134,53.8472941],[-1.6412571,53.8472925],[-1.6412625,53.847177],[-1.6412249,53.847177],[-1.6412249,53.8468843],[-1.6416916,53.8468906],[-1.6416809,53.8472688],[-1.6415817,53.8472641],[-1.6415912,53.847324]]]],"type":"MultiPolygon"},"properties":{"amenity":"childcare","building":"school","name":"Bizzykidz","osm_way_id":"235029841","other_tags":{"addr:city":"Leeds","addr:housename":"Westbrook Lane Primary School","addr:postcode":"LS18 5AH","addr:street":"Westbrook Lane","addr:suburb":"Horsforth","fhrs:id":"778670"}},"type":"Feature"},
	{"geometry":{"coordinates":[[[[-1.6258717,53.8363718],[-1.6257888,53.8363239],[-1.6257592,53.8363418],[-1.6257189,53.8363185],[-1.6255235,53.8364362],[-1.6255869,53.8364728],[-1.6255508,53.8364946],[-1.6256685,53.8365627],[-1.6257839,53.8364932],[-1.6257961,53.8365002],[-1.625864,53.8364593],[-1.6258415,53.8364462],[-1.625864,53.8364327],[-1.6258624,53.8364127],[-1.6258325,53.8363954],[-1.6258717,53.8363718]]]],"type":"MultiPolygon"},"properties":{"amenity":"childcare","building":"yes","name":"Kinder Haven Day Nursery","osm_way_id":"389171081","other_tags":{"addr:city":"Horsforth","addr:postcode":"LS18 4HH","addr:street":"Wood Lane","fhrs:id":"804434","old_name":"The Ringway","phone":"+44 113 2582110"}},"type":"Feature"},
	{"geometry":{"coordinates":[[[[-1.6203465,53.8344994],[-1.6205246,53.8344153],[-1.6203247,53.8342679],[-1.6200094,53.8344168],[-1.6200821,53.8344703],[-1.6202873,53.8343734],[-1.620335,53.8344086],[-1.620267,53.8344408],[-1.6203465,53.8344994]]]],"type":"MultiPolygon"},"properties":{"amenity":"childcare","building":"yes","name":"Woodside Methodist Playgroup","osm_way_id":"390266430","other_tags":{"addr:city":"Horsforth","addr:postcode":"LS18 4HP","addr:street":"Outwood Lane"}},"type":"Feature"}
],"type":"FeatureCollection"}