{"features":[
	{"geometry":{"coordinates":[-1.6374153,53.840099],"type":"Point"},"properties":{"name":"very stylish girl","osm_id":"3892020075","other_tags":{"addr:city":"Leeds","addr:housenumber":"121","addr:postcode":"LS18 5BL","addr:street":"Town Street","addr:suburb":"Horsforth","clothes":"women","opening_hours":"Tu-Sa 10:00-16:00; Su,Mo off","shop":"clothes"}},"type":"Feature"},
	{"geometry":{"coordinates":[-1.6360364,53.8411583],"type":"Point"},"properties":{"name":"Dressie Boutique","osm_id":"3892414281","other_tags":{"addr:city":"Leeds","addr:housenumber":"164","addr:postcode":"LS18 4AQ","addr:street":"Town Street","addr:suburb":"Horsforth","clothes":"women","contact:facebook":"https://www.facebook.com/dressieboutique","opening_hours":"Tu 11:30-15:00; Th,Fr 11:30-16:00; Sa 10:00-14:00; We,Su,Mo off","phone":"+44 113 318 4683","shop":"clothes"}},"type":"Feature"},
	{"geometry":{"coordinates":[-1.643163,53.8320344],"type":"Point"},"properties":{"name":"Laura Jane Bridal","osm_id":"3903000730","other_tags":{"addr:city":"Leeds","addr:housenumber":"125","addr:postcode":"LS18 4QD","addr:street":"New Road Side","addr:suburb":"Horsforth","check_date:opening_hours":"2023-01-09","clothes":"wedding","contact:facebook":"https://www.facebook.com/laurajanebridal/","opening_hours:signed":"no","shop":"clothes"}},"type":"Feature"},
	{"geometry":{"coordinates":[-1.6427003,53.8320257],"type":"Point"},"properties":{"name":"Missy","osm_id":"3904386513","other_tags":{"addr:city":"Leeds","addr:housenumber":"115","addr:postcode":"LS18 4QD","addr:street":"New Road Side","addr:suburb":"Horsforth","opening_hours":"We 10:00-16:00; Th,Fr 10:00-17:00; Sa 10:00-18:00","phone":"+44 113 258 0008","shop":"shoes","website":"https://www.missyuk.co.uk/"}},"type":"Feature"},
	{"geometry":{"coordinates":[-1.6413828,53.831966],"type":"Point"},"properties":{"name":"Maid To Fit","osm_id":"3904772152","other_tags":{"addr:city":"Leeds","addr:housenumber":"87","addr:postcode":"LS18 4QD","addr:street":"New Road Side","addr:suburb":"Horsforth","clothes":"women","opening_hours":"We,Th 10:00-17:00; Fr 10:00-15:00","shop":"clothes"}},"type":"Feature"},
	{"geometry":{"coordinates":[-1.6406618,53.8319015],"type":"Point"},"properties":{"name":"Hopscotch","osm_id":"3904815769","other_tags":{"addr:city":"Leeds","addr:housenumber":"75B","addr:postcode":"LS18 4QD","addr:street":"New Road Side","addr:suburb":"Horsforth","opening_hours":"Mo-Sa 09:00-17:00","phone":"+44 113 258 7171","shop":"shoes","website":"https://www.hopscotch-shoes.co.uk/horsforth"}},"type":"Feature"},
	{"geometry":{"coordinates":[-1.6413779,53.8322332],"type":"Point"},"properties":{"name":"Status Sneakers","osm_id":"3916676778","other_tags":{"addr:city":"Leeds","addr:housenumber":"96-98","addr:postcode":"LS18 4QB","addr:street":"New Road Side","addr:suburb":"Horsforth","contact:twitter":"https://twitter.com/StatusSneakers_","opening_hours":"Tu-Sa 11:00-18:00; Su 10:00-13:00","shop":"shoes"}},"type":"Feature"},
	{"geometry":{"coordinates":[-1.6189911,53.8355808],"type":"Point"},"properties":{"name":"Paradise Grove","osm_id":"3934263614","other_tags":{"addr:city":"Leeds","addr:housenumber":"27","addr:postcode":"LS18 4RN","addr:street":"Paradise Place","addr:suburb":"Horsforth","shop":"clothes"}},"type":"Feature"},
	{"geometry":{"coordinates":[[[[-1.6366094,53.8403877],[-1.6364686,53.8403521],[-1.6365611,53.8402334],[-1.6367113,53.8402635],[-1.6366094,53.8403877]]]],"type":"MultiPolygon"},"properties":{"building":"retail","name":"Keith James Menswear","osm_way_id":"385904033","other_tags":{"addr:city":"Leeds","addr:housenumber":"124-128","addr:postcode":"LS18 4AQ","addr:street":"Town Street","addr:suburb":"Horsforth","check_date:opening_hours":"2025-03-24","clothes":"men","opening_hours":"Tu-Sa 10:00-17:00","phone":"+44 113 258 2605","website":"http://keithjamesmenswear.com/"},"shop":"clothes"},"type":"Feature"}
],"type":"FeatureCollection"}