{"features":[
	{"geometry":{"coordinates":[-1.6367964,53.8401062],"type":"Point"},"properties":{"name":"Megan Sarah Photography","osm_id":"1221670544","other_tags":{"addr:city":"Leeds","addr:housenumber":"203","addr:postcode":"LS18 5BS","addr:street":"Broadgate Lane","addr:suburb":"Horsforth","check_date:opening_hours":"2023-01-16","craft":"photographer","opening_hours:signed":"no"}},"type":"Feature"},
	{"geometry":{"coordinates":[-1.6371581,53.8400026],"type":"Point"},"properties":{"name":"Firefly Pottery","osm_id":"3892020062","other_tags":{"addr:city":"Leeds","addr:housenumber":"116","addr:postcode":"LS18 4AH","addr:street":"Town Street","addr:suburb":"Horsforth","craft":"pottery","fhrs:id":"785909","opening_hours":"We-Fr 10:00-17:00; Sa-Su 10:00-16:00; Mo-Tu Closed","phone":"+44 113 345 0405","website":"https://www.facebook.com/fireflypotterystudio"}},"type":"Feature"},
	{"geometry":{"coordinates":[-1.63711,53.840031],"type":"Point"},"properties":{"name":"Marples","osm_id":"3892020063","other_tags":{"addr:city":"Leeds","addr:housenumber":"118","addr:postcode":"LS18 4AH","addr:street":"Town Street","addr:suburb":"Horsforth","craft":"confectionery","fhrs:id":"1089485","opening_hours":"Mo-Fr 10:00-17:00; Sa 10:00-16:00; Su off","phone":"+44 113 258 1970","shop":"confectionery","website":"https://www.marplessweets.co.uk/"}},"type":"Feature"},
	{"geometry":{"coordinates":[-1.6391435,53.8396404],"type":"Point"},"properties":{"name":"Pinnacle Group","osm_id":"7518646548","other_tags":{"addr:city":"Leeds","addr:housename":"St Margaret's Primary School","addr:postcode":"LS18 5LA","addr:street":"Town Street","addr:suburb":"Horsforth","craft":"caterer","fhrs:id":"1208439"}},"type":"Feature"},
	{"geometry":{"coordinates":[-1.6440653,53.8320295],"type":"Point"},"properties":{"name":"Horsforth Brewery","osm_id":"8719947213","other_tags":{"addr:city":"Leeds","addr:housenumber":"143","addr:postcode":"LS18 4ZD","addr:street":"New Road Side","contact:email":"info@horsforthbrewery.co.uk","craft":"brewery","opening_hours":"24/7","operator":"Horsforth Brewery","phone":"+44 7854078330","product":"beer","taproom":"yes","website":"https://www.horsforthbrewery.co.uk/"}},"type":"Feature"}
],"type":"FeatureCollection"}