{"features":[
	{"geometry":{"coordinates":[-1.6407882,53.8319331],"type":"Point"},"properties":{"amenity":"fast_food","name":"Esi's Grill","osm_id":"282062834","other_tags":{"addr:city":"Leeds","addr:housenumber":"77","addr:postcode":"LS18 4QD","addr:street":"New Road Side","addr:village":"Horsforth","check_date:opening_hours":"2023-01-09","cuisine":"kebab","fhrs:id":"1439603","old_name":"Cragg Hill Post Office","opening_hours:signed":"no"}},"type":"Feature"},
	{"geometry":{"coordinates":[-1.6427608,53.836819],"type":"Point"},"properties":{"amenity":"restaurant","name":"Moghul","osm_id":"1221642609","other_tags":{"addr:city":"Leeds","addr:housenumber":"8-9","addr:postcode":"LS18 5JB","addr:street":"The Green","addr:suburb":"Horsforth","cuisine":"indian","delivery":"yes","fhrs:id":"782231","opening_hours":"Mo-Su 18:00-00:00","phone":"+44 113 259 0530","smoking":"no","takeaway":"yes"}},"type":"Feature"},
	{"geometry":{"coordinates":[-1.6483642,53.8334628],"type":"Point"},"properties":{"amenity":"cafe","name":"Jams Cafe","osm_id":"1221655200","other_tags":{"addr:city":"Horsforth","addr:housenumber":"259","addr:postcode":"LS18 4DR","addr:street":"New Road Side","addr:suburb":"Horsforth","fhrs:id":"1131649","old_name":"Arnies Sarnies"}},"type":"Feature"},
	{"geometry":{"coordinates":[-1.648127,53.8333541],"type":"Point"},"properties":{"amenity":"fast_food","name":"Domino's","osm_id":"1411601451","other_tags":{"addr:city":"Horsforth","addr:country":"GB","addr:housenumber":"257","addr:postcode":"LS18 4DR","addr:street":"New Road Side","brand":"Domino's","brand:wikidata":"Q839466","brand:wikipedia":"en:Domino's Pizza","contact:website":"https://www.dominos.co.uk/pizza-near-me/leeds/257-new-road-side","cuisine":"pizza","fhrs:id":"877779","opening_hours":"Mo-Su 11:00-23:00","takeaway":"yes"}},"type":"Feature"},
	{"geometry":{"coordinates":[-1.645008,53.8322076],"type":"Point"},"properties":{"amenity":"fast_food","name":"Hartley's","osm_id":"1413588963","other_tags":{"addr:city":"Horsforth","addr:housenumber":"165","addr:postcode":"LS18 4DR","addr:street":"New Road Side","cuisine":"fish_and_chips","delivery":"no","drive_through":"no","fhrs:id":"699358","opening_hours":"Tu-Th 11:30-13:30,16:30-20:30; Sa 11:30-13:30,16:30-20:00; Su closed","phone":"+44 113 281 8308","takeaway":"only","website":"https://www.hartleysfishandchips.co.uk/horsforth/"}},"type":"Feature"},
	{"geometry":{"coordinates":[-1.6320255,53.8469406],"type":"Point"},"properties":{"amenity":"fast_food","name":"The Cove","osm_id":"1938631991","other_tags":{"addr:city":"Leeds","addr:housenumber":"23","addr:postcode":"LS18 5PA","addr:street":"Station Road","addr:suburb":"Horsforth","cuisine":"fish_and_chips","delivery":"no","drive_through":"no","fhrs:id":"1018335","opening_hours":"Tu-Th 11:15-14:00,16:00-20:30, Fr 11:15-14:30; Su,Mo off, Fr 16:00-20:30, Sa 11:15-14:30,16:00-20:00","phone":"+44 113 259 1851","smoking":"no","takeaway":"only","website":"http://thecovefishandchips.co.uk/"}},"type":"Feature"},
	{"geometry":{"coordinates":[-1.6412222,53.8376122],"type":"Point"},"properties":{"amenity":"fast_food","name":"Greggs","osm_id":"2430356583","other_tags":{"addr:city":"Leeds","addr:housenumber":"33B","addr:postcode":"LS18 5LJ","addr:street":"Town Street","addr:suburb":"Horsforth","brand":"Greggs","brand:wikidata":"Q3403981","brand:wikipedia":"en:Greggs","contact:website":"https://www.greggs.co.uk/shop-finder?shop-code=1480","cuisine":"sandwich;bakery","fhrs:id":"322132","opening_hours":"Mo-Sa 07:00-17:30; Su 09:00-15:00","phone":"+44 113 258 8336","takeaway":"yes"}},"type":"Feature"},
	{"geometry":{"coordinates":[-1.6429433,53.8362131],"type":"Point"},"properties":{"amenity":"cafe","name":"Cafe Yoga","osm_id":"2430356585","other_tags":{"addr:city":"Leeds","addr:housenumber":"2","addr:postcode":"LS18 4RF","addr:street":"Back Lane","addr:suburb":"Horsforth","fhrs:id":"1290567","opening_hours":"Mo-Sa 09:00-14:00; Su closed","outdoor_seating":"yes","website":"https://www.cafeyogahorsforth.co.uk/"}},"type":"Feature"},
	{"geometry":{"coordinates":[-1.6410794,53.837426],"type":"Point"},"properties":{"amenity":"restaurant","name":"Napoli Nel Cuore","osm_id":"2430356586","other_tags":{"addr:city":"Leeds","addr:housenumber":"30","addr:postcode":"LS18 4RJ","addr:street":"Town Street","addr:suburb":"Horsforth","cuisine":"italian","fhrs:id":"1034323","level":"0","old_name":"Fultons","opening_hours":"Tu-Th 16:30-22:00; Fr 16:30-22:30; Sa 12:00-22:30; Su 12:00-21:00","phone":"+44 113 217 1218","website":"https://www.napolinelcuore.co.uk/"}},"type":"Feature"},
	{"geometry":{"coordinates":[-1.6201743,53.837983],"type":"Point"},"properties":{"amenity":"fast_food","name":"Voujon","osm_id":"3626084215","other_tags":{"addr:housenumber":"2","addr:postcode":"LS18 5DF","addr:street":"Lambert Terrace","addr:town":"Horsforth","cuisine":"indian"}},"type":"Feature"},
	{"geometry":{"coordinates":[-1.6399832,53.8381162],"type":"Point"},"properties":{"amenity":"fast_food","name":"Dixy Chicken","osm_id":"3886416658","other_tags":{"addr:city":"Leeds","addr:housenumber":"58","addr:postcode":"LS18 4AP","addr:street":"Town Street","addr:suburb":"Horsforth","brand":"Dixy Chicken","brand:wikidata":"Q5285003","brand:wikipedia":"en:Dixy Chicken","cuisine":"chicken","delivery":"yes","diet:halal":"yes","drive_through":"no","fhrs:id":"1137708","opening_hours":"Su-Th 11:30-23:30; Fr-Sa 11:30+","phone":"+44 113 281 8182","smoking":"no","takeaway":"only","website":"http://www.dixyhorsforth.co.uk/"}},"type":"Feature"},
	{"geometry":{"coordinates":[-1.6390385,53.8389432],"type":"Point"},"properties":{"amenity":"fast_food","name":"Unique Chinese Takeaway","osm_id":"3887784683","other_tags":{"addr:city":"Leeds","addr:housenumber":"82","addr:postcode":"LS18 4AP","addr:street":"Town Street","addr:suburb":"Horsforth","cuisine":"chinese","drive_through":"no","fhrs:id":"974971","opening_hours":"Tu,We,Fr-Su 16:45-22:10; Mo,Th off","phone":"+44 113 258 0800","smoking":"no","takeaway":"only"}},"type":"Feature"},
	{"geometry":{"coordinates":[-1.6382312,53.839423],"type":"Point"},"properties":{"amenity":"cafe","name":"Courtyard Cafe","osm_id":"3887784735","other_tags":{"addr:city":"Leeds","addr:housenumber":"96","addr:postcode":"LS18 4AP","addr:street":"Town Street","addr:suburb":"Horsforth","contact:facebook":"https://www.facebook.com/courtyardhorsforth/","fhrs:id":"546082","opening_hours":"Mo-Fr 09:30-15:30; Sa,Su off","smoking":"no"}},"type":"Feature"},
	{"geometry":{"coordinates":[-1.6395596,53.8387082],"type":"Point"},"properties":{"amenity":"restaurant","name":"Trattoria Il Forno","osm_id":"3887830115","other_tags":{"addr:city":"Leeds","addr:housenumber":"85","addr:postcode":"LS18 5BP","addr:street":"Town Street","addr:suburb":"Horsforth","cuisine":"italian","delivery":"no","fhrs:id":"738492","opening_hours":"Tu-Su 12:00-23:00; Mo closed","phone":"+44 113 345 0150","smoking":"no","takeaway":"yes","website":"http://www.trattoriailforno.co.uk/"}},"type":"Feature"},
	{"geometry":{"coordinates":[-1.6393536,53.8389274],"type":"Point"},"properties":{"amenity":"cafe","name":"The Greenhouse Horsforth","osm_id":"3887830124","other_tags":{"addr:city":"Leeds","addr:housenumber":"85E","addr:postcode":"LS18 5BP","addr:street":"Town Street","addr:suburb":"Horsforth","fhrs:id":"1522948","old_name":"Horsforth Footcare Centre","opening_hours":"Mo-Sa 09:00-16:00; Su 10:00-16:00","website":"https://www.thegreenhousehorsforth.co.uk/"}},"type":"Feature"},
	{"geometry":{"coordinates":[-1.6388724,53.8392267],"type":"Point"},"properties":{"amenity":"fast_food","name":"Chicago Pizza","osm_id":"3887830145","other_tags":{"addr:city":"Leeds","addr:housenumber":"93","addr:postcode":"LS18 5BP","addr:street":"Town Street","addr:suburb":"Horsforth","delivery":"yes","drive_through":"no","fhrs:id":"1512846","opening_hours":"Mo-Th 17:00-24:00; Fr 17:00-02:00, Sa 17:00-02:00, Su 17:00-24:00","phone":"+44 113 281 8800","smoking":"no","takeaway":"yes","website":"https://chicagopizzaleeds.com/"}},"type":"Feature"},
	{"geometry":{"coordinates":[-1.633519,53.8466274],"type":"Point"},"properties":{"amenity":"cafe","name":"Number 9","osm_id":"3898525379","other_tags":{"addr:city":"Leeds","addr:housenumber":"9","addr:postcode":"LS18 5PA","addr:street":"Station Road","addr:suburb":"Horsforth","cuisine":"sandwich","fhrs:id":"320535","opening_hours":"Mo-Fr 07:00-15:00; Sa-Su closed","phone":"+44 113 258 6046","smoking":"no"}},"type":"Feature"},
	{"geometry":{"coordinates":[-1.6336038,53.8466166],"type":"Point"},"properties":{"amenity":"fast_food","name":"Pizza Affair","osm_id":"3898525380","other_tags":{"addr:city":"Leeds","addr:housenumber":"7","addr:postcode":"LS18 5PA","addr:street":"Station Road","addr:suburb":"Horsforth","check_date:opening_hours":"2023-01-16","cuisine":"pizza","delivery":"yes","drive_through":"no","fhrs:id":"322952","opening_hours:signed":"no","phone":"+44 113 258 5533","smoking":"no","takeaway":"only"}},"type":"Feature"},
	{"geometry":{"coordinates":[-1.6337558,53.8465961],"type":"Point"},"properties":{"amenity":"cafe","name":"Haus Of Coffee","osm_id":"3898525382","other_tags":{"addr:city":"Leeds","addr:housenumber":"3","addr:postcode":"LS18 5PA","addr:street":"Station Road","addr:suburb":"Horsforth","cuisine":"coffee_shop","fhrs:id":"1229369","opening_hours":"Mo-Fr 07:00-16:00; Sa 08:00-16:00; Su 09:00-15:00"}},"type":"Feature"},
	{"geometry":{"coordinates":[-1.6328243,53.8467404],"type":"Point"},"properties":{"amenity":"fast_food","name":"Station Pizza and Punjab Tandoori","osm_id":"3898525384","other_tags":{"addr:city":"Leeds","addr:housenumber":"17","addr:postcode":"LS18 5PA","addr:street":"Station Road","addr:suburb":"Horsforth","check_date:opening_hours":"2022-12-12","cuisine":"pizza","drive_through":"no","fhrs:id":"666662","opening_hours:signed":"no","phone":"+44 113 259 0060"}},"type":"Feature"},
	{"geometry":{"coordinates":[-1.6329389,53.8465159],"type":"Point"},"properties":{"amenity":"fast_food","name":"Grilleria","osm_id":"3898601860","other_tags":{"addr:city":"Horsforth","addr:housenumber":"2","addr:postcode":"LS18 5PJ","addr:street":"The Gables","fhrs:id":"1125145","old_name":"Acorn Estates","opening_hours":"Mo-Su 11:00-22:00"}},"type":"Feature"},
	{"geometry":{"coordinates":[-1.6477296,53.833156],"type":"Point"},"properties":{"amenity":"fast_food","name":"Oriental Dragon","osm_id":"3900232611","other_tags":{"addr:city":"Horsforth","addr:housenumber":"227","addr:postcode":"LS18 4DR","addr:street":"New Road Side","cuisine":"chinese","delivery":"yes","drive_through":"no","fhrs:id":"321358","phone":"+44 113 259 0406","takeaway":"only"}},"type":"Feature"},
	{"geometry":{"coordinates":[-1.6439739,53.8320958],"type":"Point"},"properties":{"amenity":"restaurant","name":"East","osm_id":"3902978496","other_tags":{"addr:city":"Horsforth","addr:housenumber":"141","addr:postcode":"LS18 4QD","addr:street":"New Road Side","cuisine":"indian","disused":"restaurant","takeaway":"yes","website":"http://www.eastatenigma.co.uk/"}},"type":"Feature"},
	{"geometry":{"coordinates":[-1.6436447,53.8320773],"type":"Point"},"properties":{"amenity":"fast_food","name":"Cathay","osm_id":"3902978503","other_tags":{"addr:city":"Horsforth","addr:housenumber":"133","addr:postcode":"LS18 4QD","addr:street":"New Road Side","cuisine":"chinese","drive_through":"no","fhrs:id":"321820","opening_hours":"17:00-01:00","phone":"+44 113 258 5151","takeaway":"only"}},"type":"Feature"},
	{"geometry":{"coordinates":[-1.6427725,53.8320281],"type":"Point"},"properties":{"amenity":"cafe","name":"Cafe Dino","osm_id":"3904386506","other_tags":{"addr:city":"Horsforth","addr:housenumber":"117","addr:postcode":"LS18 4QD","addr:street":"New Road Side","cuisine":"coffee_shop;italian","fhrs:id":"1178987","opening_hours":"PH off; Mo-We 08:00-15:00; Th,Fr 08:00-16:00; Sa 09:00-16:00","outdoor_seating":"yes","phone":"+44 113 258 1002","smoking":"no"}},"type":"Feature"},
	{"geometry":{"coordinates":[-1.6419171,53.8319984],"type":"Point"},"properties":{"amenity":"fast_food","name":"Yorkshire Charcoal Fresh","osm_id":"3904761977","other_tags":{"addr:city":"Horsforth","addr:housenumber":"99","addr:postcode":"LS18 4QD","addr:street":"New Road Side","cuisine":"indian","delivery":"yes","drive_through":"no","fhrs:id":"1560918","opening_hours":"Su-Th 17:00-00:40; Fr-Sa 17:00-13:40","phone":"+44 113 258 9393","source:addr":"FHRS Open Data","takeaway":"only"}},"type":"Feature"},
	{"geometry":{"coordinates":[-1.6402555,53.8318558],"type":"Point"},"properties":{"amenity":"fast_food","name":"Subway","osm_id":"3904815773","other_tags":{"addr:city":"Horsforth","addr:housenumber":"73","addr:postcode":"LS18 4QD","addr:street":"New Road Side","brand":"Subway","brand:wikidata":"Q244457","brand:wikipedia":"en:Subway (restaurant)","contact:website":"https://restaurants.subway.com/united-kingdom/en/leeds/73-new-road-side-horsforth","cuisine":"sandwich","delivery":"no","drive_through":"no","fhrs:id":"1562607","opening_hours":"Mo-We 07:00-20:00; Th-Fr 07:00-21:00; Sa 08:00-21:00; Su 09:00-17:00","phone":"+44 113 258 7919","smoking":"no","takeaway":"yes"}},"type":"Feature"},
	{"geometry":{"coordinates":[-1.6401375,53.8317841],"type":"Point"},"properties":{"amenity":"fast_food","name":"Pizza Hut Delivery","osm_id":"3904815774","other_tags":{"addr:city":"Horsforth","addr:housenumber":"71A","addr:postcode":"LS18 4QD","addr:street":"New Road Side","brand":"Pizza Hut Delivery","brand:wikidata":"Q107293079","brand:wikipedia":"en:Pizza Hut","cuisine":"pizza","delivery":"yes","drive_through":"no","fhrs:id":"1098250","opening_hours":"11:00-22:00","phone":"+44 113 281 9090","smoking":"no","takeaway":"only"}},"type":"Feature"},
	{"geometry":{"coordinates":[-1.6475121,53.8334132],"type":"Point"},"properties":{"amenity":"restaurant","name":"Escape Restaurant And Bar","osm_id":"3906862940","other_tags":{"addr:city":"Horsforth","addr:housenumber":"194d-194e","addr:postcode":"LS18 4DP","addr:street":"New Road Side","fhrs:id":"1286796","old_name":"La Cour"}},"type":"Feature"},
	{"geometry":{"coordinates":[-1.6474082,53.8333677],"type":"Point"},"properties":{"amenity":"restaurant","name":"Nawaab Khan","osm_id":"3906862941","other_tags":{"addr:city":"Horsforth","addr:housenumber":"194b-194c","addr:postcode":"LS18 4DP","addr:street":"New Road Side","addr:suburb":"Horsforth","cuisine":"indian","fhrs:id":"964258","takeaway":"yes"}},"type":"Feature"},
	{"geometry":{"coordinates":[-1.6473054,53.8333236],"type":"Point"},"properties":{"amenity":"restaurant","name":"Istanbul Grill","osm_id":"3906862942","other_tags":{"addr:city":"Horsforth","addr:housenumber":"194A","addr:postcode":"LS18 4DP","addr:street":"New Road Side","cuisine":"regional","fhrs:id":"942960","phone":"+44 113 259 0344","website":"http://istanbulgrill-leeds.co.uk/"}},"type":"Feature"},
	{"geometry":{"coordinates":[-1.6411284,53.8321949],"type":"Point"},"properties":{"amenity":"cafe","name":"Pooky's Deli","osm_id":"3916676791","other_tags":{"addr:city":"Horsforth","addr:housenumber":"92","addr:postcode":"LS18 4QB","addr:street":"New Road Side","fhrs:id":"1018397","opening_hours":"Mo-Fr 08:30-17:30; Sa 09:00-16:00; Su closed","phone":"+44 113 2588811","smoking":"no","website":"http://pookyandgrumps.co.uk/"}},"type":"Feature"},
	{"geometry":{"coordinates":[-1.6409317,53.8322345],"type":"Point"},"properties":{"amenity":"fast_food","name":"Pizza King and Corriander","osm_id":"3916676793","other_tags":{"addr:city":"Horsforth","addr:housenumber":"1","addr:postcode":"LS18 4LZ","addr:street":"Sunnybank Avenue","delivery":"yes","drive_through":"no","fhrs:id":"1131641","opening_hours":"Mo-Su 17:00-00:45","phone":"+44 113 2582022","takeaway":"only","website":"http://pizzakingandcorriander.co.uk/"}},"type":"Feature"},
	{"geometry":{"coordinates":[-1.6405178,53.832146],"type":"Point"},"properties":{"amenity":"cafe","name":"Scoffs","osm_id":"3916753763","other_tags":{"addr:city":"Horsforth","addr:housenumber":"86","addr:postcode":"LS18 4QB","addr:street":"New Road Side","cuisine":"sandwich","diet:vegan":"only","email":"hello@scoffsleeds.co.uk","fhrs:id":"1350598","not:addr:postcode":"LS18 4DP; LS18 4LZ","old_name":"Mr \u00c2\u00a3andwich","opening_hours":"Tu-We 07:00-15:00; Th-Fr 07:00-21:00; Sa-Su 08:00-18:00","phone":"+44 7368 321316","strapline":"Feel Good Food","takeaway":"yes","was:fhrs:id":"1157883","website":"https://scoffsleeds.co.uk"}},"type":"Feature"},
	{"geometry":{"coordinates":[-1.6190039,53.8356276],"type":"Point"},"properties":{"amenity":"fast_food","name":"Jade Unicorn","osm_id":"3934263613","other_tags":{"addr:city":"Horsforth","addr:housenumber":"25","addr:postcode":"LS18 4RN","addr:street":"Paradise Place","cuisine":"chinese","delivery":"yes","drive_through":"no","fhrs:id":"1512848","phone":"+44 113 2587306","takeaway":"only"}},"type":"Feature"},
	{"geometry":{"coordinates":[-1.6664685,53.8319505],"type":"Point"},"properties":{"amenity":"cafe","name":"Brodie & Flynn","osm_id":"5246808616","other_tags":{"addr:city":"Leeds","addr:housename":"Luxe Studios","addr:housenumber":"24","addr:postcode":"LS18 4FA","addr:street":"Bletchley Avenue","addr:suburb":"Horsforth","fhrs:id":"1425214","opening_hours":"Mo-Tu off; We-Sa 09:30-15:00; Su 09:00-13:00","shop":"deli"}},"type":"Feature"},
	{"geometry":{"coordinates":[-1.6310124,53.8468835],"type":"Point"},"properties":{"amenity":"fast_food","name":"Scarlett's Sandwich Bar","osm_id":"5476149005","other_tags":{"addr:city":"Leeds","addr:housenumber":"54","addr:postcode":"LS18 5NR","addr:street":"Station Road","addr:suburb":"Horsforth","cuisine":"sandwich","fhrs:id":"1350599","opening_hours":"Mo-Fr 08:00-14:00","phone":"+44 7731 963961","takeaway":"yes"}},"type":"Feature"},
	{"geometry":{"coordinates":[-1.6239944,53.8401223],"type":"Point"},"properties":{"amenity":"fast_food","name":"New Ho Garden","osm_id":"5476149008","other_tags":{"addr:city":"Leeds","addr:housenumber":"1","addr:postcode":"LS18 5QH","addr:street":"Breary Avenue","addr:suburb":"Horsforth","cuisine":"chinese","fhrs:id":"942962","opening_hours":"Mo,We,Th 16:30-23:00; Fr-Su 16:30-23:30","takeaway":"yes"}},"type":"Feature"},
	{"geometry":{"coordinates":[-1.6222483,53.8399934],"type":"Point"},"properties":{"amenity":"fast_food","name":"Shashlik","osm_id":"5476149009","other_tags":{"addr:city":"Leeds","addr:housenumber":"249a","addr:postcode":"LS18 5NY","addr:street":"Low Lane","addr:suburb":"Horsforth","cuisine":"indian","fhrs:id":"805423","takeaway":"yes"}},"type":"Feature"},
	{"geometry":{"coordinates":[-1.6222644,53.839498],"type":"Point"},"properties":{"amenity":"fast_food","name":"Benson And Brooklyn","osm_id":"5476149011","other_tags":{"addr:city":"Leeds","addr:housenumber":"256","addr:postcode":"LS18 5DN","addr:street":"Low Lane","addr:suburb":"Horsforth","cuisine":"sandwich","old_name":"Fuel","takeaway":"yes"}},"type":"Feature"},
	{"geometry":{"coordinates":[-1.6216703,53.8391645],"type":"Point"},"properties":{"amenity":"fast_food","name":"Woodside Fisheries","osm_id":"5476149012","other_tags":{"addr:city":"Leeds","addr:housenumber":"274","addr:postcode":"LS18 5DN","addr:street":"Low Lane","addr:suburb":"Horsforth","cuisine":"fish_and_chips","fhrs:id":"1375388","takeaway":"yes"}},"type":"Feature"},
	{"geometry":{"coordinates":[-1.6348775,53.842406],"type":"Point"},"properties":{"amenity":"fast_food","name":"Kirbys","osm_id":"5489173959","other_tags":{"addr:city":"Leeds","addr:housenumber":"24-26","addr:postcode":"LS18 5AA","addr:street":"Long Row","addr:suburb":"Horsforth","cuisine":"fish_and_chips","fhrs:id":"1557211","opening_hours":"Mo-Th 11:15-20:00; Fr 11:15-21:00; Sa 11:15-20:00","phone":"+44 113 258 9764","website":"https://kirbysofhorsforth.co.uk/"}},"type":"Feature"},
	{"geometry":{"coordinates":[-1.6192321,53.8360509],"type":"Point"},"properties":{"amenity":"fast_food","name":"Woodside Stores","osm_id":"5723391064","other_tags":{"addr:city":"Leeds","addr:housenumber":"1","addr:postcode":"LS18 4DE","addr:street":"Paradise Place","addr:suburb":"Horsforth","cuisine":"sandwich","fhrs:id":"320539","shop":"convenience","takeaway":"yes"}},"type":"Feature"},
	{"geometry":{"coordinates":[-1.6379339,53.8333166],"type":"Point"},"properties":{"amenity":"fast_food","name":"Regent Fisheries","osm_id":"5969690401","other_tags":{"addr:city":"Leeds","addr:housenumber":"26","addr:postcode":"LS18 4NP","addr:street":"Regent Road","addr:suburb":"Horsforth","cuisine":"fish_and_chips","fhrs:id":"322178","takeaway":"yes"}},"type":"Feature"},
	{"geometry":{"coordinates":[-1.6407421,53.8371485],"type":"Point"},"properties":{"amenity":"cafe","name":"Grove Luncheon Club","osm_id":"6010070715","other_tags":{"addr:city":"Leeds","addr:housename":"Grove Methodist Youth Centre","addr:postcode":"LS18 4BH","addr:street":"New Street","addr:suburb":"Horsforth","fhrs:id":"321039"}},"type":"Feature"},
	{"geometry":{"coordinates":[-1.6505717,53.8346122],"type":"Point"},"properties":{"amenity":"cafe","name":"Starbucks","osm_id":"6188103304","other_tags":{"addr:city":"Leeds","addr:housename":"Broadway Service Station","addr:postcode":"LS18 4DY","addr:street":"Broadway","addr:suburb":"Horsforth","brand":"Starbucks","brand:wikidata":"Q37158","brand:wikipedia":"en:Starbucks","cuisine":"coffee_shop","fhrs:id":"1084151","official_name":"Starbucks Coffee","opening_hours":"Mo-Fr 06:00-20:00; Sa 06:30-20:00; Su 07:30-20:00","takeaway":"yes"}},"type":"Feature"},
	{"geometry":{"coordinates":[-1.6410425,53.8373978],"type":"Point"},"properties":{"amenity":"cafe","name":"Jigsaw Juniors","osm_id":"6540158122","other_tags":{"addr:city":"Leeds","addr:housenumber":"30","addr:postcode":"LS18 4RJ","addr:street":"Town Street","addr:suburb":"Horsforth","fhrs:id":"1073664","indoor":"yes","leisure":"playground","level":"1"}},"type":"Feature"},
	{"geometry":{"coordinates":[-1.6425238,53.8368138],"type":"Point"},"properties":{"amenity":"fast_food","name":"Slap and Pickle Burgers","osm_id":"6746554111","other_tags":{"addr:city":"Leeds","addr:housename":"The Old Kings Arms","addr:postcode":"LS18 5JB","addr:street":"The Green","addr:suburb":"Horsforth","cuisine":"burger","fhrs:id":"1439602","opening_hours":"Mo-Th 12:00-22:00; Fr-Sa 12:00-23:00; Su 12:00-22:00","operator":"Slap and Pickle","website":"https://slapandpickle.co.uk/locations/"}},"type":"Feature"},
	{"geometry":{"coordinates":[-1.6480431,53.8336462],"type":"Point"},"properties":{"amenity":"fast_food","name":"Slap & Pickle","osm_id":"7777411075","other_tags":{"addr:city":"Horsforth","addr:housename":"The Fleece","addr:postcode":"LS18 4DT","addr:street":"New Road Side","cuisine":"burger","fhrs:id":"1257506","opening_hours":"Fr,Sa 12:00-23:00; Su-Th 12:00-22:00"}},"type":"Feature"},
	{"geometry":{"coordinates":[-1.64692,53.8484957],"type":"Point"},"properties":{"amenity":"cafe","name":"Starbucks","osm_id":"8164493274","other_tags":{"addr:city":"Leeds","addr:housename":"Leeds Trinity University","addr:postcode":"LS18 5HD","addr:street":"Brownberrie Lane","brand":"Starbucks","brand:wikidata":"Q37158","brand:wikipedia":"en:Starbucks","cuisine":"coffee_shop","official_name":"Starbucks Coffee","takeaway":"yes"}},"type":"Feature"},
	{"geometry":{"coordinates":[-1.6474518,53.8491157],"type":"Point"},"properties":{"amenity":"cafe","name":"Grumpy Mule Cafe","osm_id":"8164493275","other_tags":{"addr:city":"Leeds","addr:housename":"Leeds Trinity University","addr:postcode":"LS18 5HD","addr:street":"Brownberrie Lane"}},"type":"Feature"},
	{"geometry":{"coordinates":[-1.6405778,53.8376806],"type":"Point"},"properties":{"amenity":"cafe","name":"Costa","osm_id":"10801914248","other_tags":{"addr:housenumber":"38","addr:postcode":"LS18 4RJ","addr:street":"Town Street","brand":"Costa","brand:wikidata":"Q608845","cuisine":"coffee_shop","opening_hours":"Mo-Fr 07:30-17:30; Sa 08:00-17:00; Su 09:00-16:00","outdoor_seating":"no","takeaway":"yes"}},"type":"Feature"},
	{"geometry":{"coordinates":[[[[-1.6499097,53.8345115],[-1.6498926,53.8347342],[-1.6496923,53.8347289],[-1.6497094,53.8345062],[-1.6499097,53.8345115]]]],"type":"MultiPolygon"},"properties":{"amenity":"fast_food","building":"retail","name":"KFC","osm_way_id":"100530175","other_tags":{"addr:city":"Horsforth","addr:postcode":"LS18 4DY","addr:street":"Broadway","alt_name":"Kentucky Fried Chicken","brand":"KFC","brand:wikidata":"Q524757","brand:wikipedia":"en:KFC","contact:website":"https://www.kfc.co.uk/kfc-near-me/leeds-horsforth","cuisine":"chicken","drive_through":"yes","fhrs:id":"322495","opening_hours":"Mo-Su 10:30-23:00","takeaway":"yes"}},"type":"Feature"},
	{"geometry":{"coordinates":[[[[-1.6367968,53.831511],[-1.636755,53.8315619],[-1.6366326,53.8315093],[-1.6366207,53.8314968],[-1.6366314,53.8314863],[-1.6366528,53.83148],[-1.6366741,53.8314831],[-1.6367968,53.831511]]]],"type":"MultiPolygon"},"properties":{"amenity":"fast_food","building":"yes","name":"Metro Sandwich bar","osm_way_id":"127110292","other_tags":{"cuisine":"sandwich"}},"type":"Feature"},
	{"geometry":{"coordinates":[[[[-1.6186516,53.8368624],[-1.6187396,53.8366564],[-1.6189817,53.8366924],[-1.6189708,53.8367178],[-1.6190181,53.8367248],[-1.6190377,53.8367401],[-1.6190389,53.8367618],[-1.6190361,53.8367684],[-1.6191544,53.8367861],[-1.6190549,53.8370179],[-1.6188742,53.836991],[-1.6189166,53.8368922],[-1.6188219,53.8368781],[-1.618807,53.8369131],[-1.6187241,53.8369008],[-1.6187352,53.8368748],[-1.6186516,53.8368624]]]],"type":"MultiPolygon"},"properties":{"amenity":"restaurant","building":"yes","name":"Miller & Carter","osm_way_id":"302567472","other_tags":{"addr:city":"Leeds","addr:country":"GB","addr:housenumber":"299","addr:postcode":"LS18 4DD","addr:street":"Low Lane","addr:suburb":"Horsforth","brand":"Miller & Carter","brand:wikidata":"Q87067401","cuisine":"steak","fhrs:id":"1075919","old_name":"Woodside Tavern","opening_hours":"Mo-Su 12:00-23:00","phone":"+44 113 258 2341","website":"https://www.millerandcarter.co.uk/restaurants/yorkshire-and-the-humber/millerandcarterhorsforth","wheelchair":"yes"}},"type":"Feature"},
	{"geometry":{"coordinates":[[[[-1.6336638,53.8459273],[-1.6336799,53.8459906],[-1.6336449,53.845994],[-1.6335243,53.846005],[-1.6335109,53.8459384],[-1.6336317,53.8459297],[-1.6336638,53.8459273]]]],"type":"MultiPolygon"},"properties":{"amenity":"restaurant","building":"yes","name":"La Bistro","osm_way_id":"372433120","other_tags":{"addr:city":"Leeds","addr:housenumber":"124","addr:postcode":"LS18 5AT","addr:street":"Long Row","addr:suburb":"Horsforth","cuisine":"mediterranean","fhrs:id":"771425","opening_hours":"Mo-Su 12:00-21:30","phone":"+44 113 345 0110","website":"https://labistroleeds.co.uk/"}},"type":"Feature"},
	{"geometry":{"coordinates":[[[[-1.6336755,53.846113],[-1.6335506,53.8461269],[-1.6335088,53.8461274],[-1.6334747,53.8460135],[-1.6335243,53.846005],[-1.6336449,53.845994],[-1.6336755,53.846113]]]],"type":"MultiPolygon"},"properties":{"amenity":"restaurant","building":"yes","name":"Hong Kong Super Cook","osm_way_id":"372433148","other_tags":{"addr:city":"Leeds","addr:postcode":"LS18 5AT","addr:street":"Long Row","addr:suburb":"Horsforth","addr:unit":"3","cuisine":"chinese;thai","fhrs:id":"320531","opening_hours":"Tu-Su 17:00-22:00; Mo off","takeaway":"yes"}},"type":"Feature"},
	{"geometry":{"coordinates":[[[[-1.6480845,53.8374486],[-1.6481277,53.8375016],[-1.6480343,53.8375147],[-1.6480645,53.8375489],[-1.6481055,53.8375953],[-1.6478837,53.8376098],[-1.6478946,53.8375601],[-1.6479024,53.837525],[-1.647809,53.8375202],[-1.6478183,53.8374686],[-1.6478673,53.8374748],[-1.6479129,53.8374761],[-1.6479689,53.8374734],[-1.6480121,53.8374672],[-1.648046,53.8374617],[-1.6480845,53.8374486]]]],"type":"MultiPolygon"},"properties":{"amenity":"restaurant","building":"yes","name":"Ameen's","osm_way_id":"381972739","other_tags":{"addr:postcode":"LS18 5JY","cuisine":"indian","delivery":"no","fhrs:id":"1439612","opening_hours":"Mo-Th 17:00-22:00, Fr-Sa 17:00-23:00, Su 15:00-22:00","opening_hours:signed":"no","phone":"+44 113 258 7210","takeaway":"no","website":"https://www.ameensrestaurants.co.uk/menu"}},"type":"Feature"},
	{"geometry":{"coordinates":[[[[-1.6453602,53.8343873],[-1.645214,53.8343668],[-1.6452167,53.8343588],[-1.6450035,53.8343446],[-1.6449848,53.8344352],[-1.6449753,53.8344815],[-1.6449927,53.8344823],[-1.6449847,53.8345124],[-1.645037,53.8345163],[-1.6449927,53.8345654],[-1.6450864,53.8345893],[-1.6451564,53.8345142],[-1.6451552,53.8344163],[-1.6451949,53.8344191],[-1.6451844,53.8345135],[-1.6451249,53.8346023],[-1.6452685,53.8346382],[-1.6453257,53.8345452],[-1.6453602,53.8343873]]]],"type":"MultiPolygon"},"properties":{"amenity":"restaurant","building":"yes","name":"Toby Carvery","osm_way_id":"381972760","other_tags":{"addr:city":"Horsforth","addr:housenumber":"4","addr:postcode":"LS18 4DH","addr:street":"Fink Hill","brand":"Toby Carvery","brand:wikidata":"Q7811777","brand:wikipedia":"en:Toby Carvery","contact:website":"https://www.tobycarvery.co.uk/restaurants/yorkshire/horsforthleeds","cuisine":"british","fhrs:id":"320523","opening_hours":"08:00-23:00"}},"type":"Feature"},
	{"geometry":{"coordinates":[[[[-1.6420679,53.8369183],[-1.6421452,53.8368469],[-1.6420334,53.8368036],[-1.6418372,53.8367276],[-1.6417589,53.8367935],[-1.6420679,53.8369183]]]],"type":"MultiPolygon"},"properties":{"amenity":"restaurant","building":"yes","name":"myMakan","osm_way_id":"385229033","other_tags":{"addr:city":"Leeds","addr:housenumber":"8-10","addr:postcode":"LS18 4RJ","addr:street":"Town Street","addr:suburb":"Horsforth","opening_hours":"Tu-Fr 17:00-22:00; Sa,Su 12:00-22:00; Mo off","phone":"+44 0113 824 4378","website":"https://mymakan.co.uk/"}},"type":"Feature"},
	{"geometry":{"coordinates":[[[[-1.6421705,53.8368245],[-1.6421855,53.8368308],[-1.6422687,53.8367676],[-1.6421191,53.8367075],[-1.6420431,53.8367702],[-1.6420608,53.836778],[-1.6421705,53.8368245]]]],"type":"MultiPolygon"},"properties":{"amenity":"restaurant","building":"yes","name":"The Little Monk","osm_way_id":"385230899","other_tags":{"addr:city":"Leeds","addr:housenumber":"4-6","addr:postcode":"LS18 4RJ","addr:street":"Town Street","addr:suburb":"Horsforth","delivery":"no","fhrs:id":"1354749","old_name":"Pizza Express","opening_hours":"Tu-Th 17:00-21:00; Fr,Sa 12:00-22:00; Su 12:00-20:00","smoking":"no"}},"type":"Feature"},
	{"geometry":{"coordinates":[[[[-1.6421754,53.8369654],[-1.64211,53.8370102],[-1.6422007,53.8370522],[-1.6422396,53.83708],[-1.6423132,53.8370343],[-1.6421754,53.8369654]]]],"type":"MultiPolygon"},"properties":{"amenity":"restaurant","building":"yes","name":"Forde","osm_way_id":"385277878","other_tags":{"addr:city":"Leeds","addr:housenumber":"7","addr:postcode":"LS18 5LJ","addr:street":"Town Street","addr:suburb":"Horsforth","cuisine":"regional","disused:shop":"yes","fhrs:id":"1410570","opening_hours":"We-Sa 11:00-23:00; Su 12:00-18:00","website":"https://theforde.co.uk/"}},"type":"Feature"},
	{"geometry":{"coordinates":[[[[-1.6422396,53.83708],[-1.6422864,53.8371134],[-1.6421641,53.8371729],[-1.642147,53.8371607],[-1.6420785,53.8371117],[-1.6422007,53.8370522],[-1.6422396,53.83708]]]],"type":"MultiPolygon"},"properties":{"amenity":"restaurant","building":"yes","name":"Konak Meze Turkish Restaurant","osm_way_id":"385277879","other_tags":{"addr:city":"Leeds","addr:housenumber":"9-11","addr:postcode":"LS18 5LJ","addr:street":"Town Street","addr:suburb":"Horsforth","cuisine":"turkish","fhrs:id":"1204462","old_name":"Baron Bistro","opening_hours":"Tu-Sa 12:00-21:30; Su 12:00-21:00","phone":"+44113 217 24 64","website":"http://www.konakmeze.co.uk/"}},"type":"Feature"},
	{"geometry":{"coordinates":[[[[-1.6420785,53.8371117],[-1.6420239,53.8371376],[-1.6420936,53.837187],[-1.642147,53.8371607],[-1.6420785,53.8371117]]]],"type":"MultiPolygon"},"properties":{"amenity":"fast_food","building":"yes","name":"Nour Nuar","osm_way_id":"385277880","other_tags":{"addr:city":"Leeds","addr:housenumber":"13","addr:postcode":"LS18 5LJ","addr:street":"Town Street","addr:suburb":"Horsforth","check_date:opening_hours":"2023-01-23","cuisine":"thai","fhrs:id":"1226410","opening_hours":"Mo-Su 12:00-21:00","takeaway":"only","website":"https://www.nournuarhorsforth.co.uk/"}},"type":"Feature"},
	{"geometry":{"coordinates":[[[[-1.6399076,53.8382371],[-1.6398453,53.8382119],[-1.639895,53.8381691],[-1.6399166,53.8381505],[-1.6399789,53.8381757],[-1.6399076,53.8382371]]]],"type":"MultiPolygon"},"properties":{"amenity":"cafe","building":"retail","name":"Woodlawn Coffee Co","osm_way_id":"385291937","other_tags":{"addr:city":"Leeds","addr:housenumber":"60a","addr:postcode":"LS18 4AP","addr:street":"Town Street","addr:suburb":"Horsforth","check_date:opening_hours":"2023-02-17","fhrs:id":"1018292","opening_hours:signed":"no","website":"http://woodlawncoffeeco.com/"}},"type":"Feature"},
	{"geometry":{"coordinates":[[[[-1.638762,53.8391411],[-1.6386655,53.8391945],[-1.6385394,53.8391286],[-1.6386391,53.8390727],[-1.638762,53.8391411]]]],"type":"MultiPolygon"},"properties":{"amenity":"cafe","building":"yes","name":"Truly Scrummy","osm_way_id":"385432511","other_tags":{"addr:city":"Leeds","addr:housenumber":"90A","addr:postcode":"LS18 4AP","addr:street":"Town Street","addr:suburb":"Horsforth","check_date:opening_hours":"2023-02-06","fhrs:id":"1263398","opening_hours":"Tu-Sa 09:00-16:00; Su 10:00-15:00","website":"https://www.trulyscrummy.com/"}},"type":"Feature"},
	{"geometry":{"coordinates":[[[[-1.6471316,53.8329084],[-1.647215,53.8328461],[-1.6469865,53.8327424],[-1.6469117,53.832802],[-1.6471316,53.8329084]]]],"type":"MultiPolygon"},"properties":{"amenity":"restaurant","building":"yes","name":"The Agora","osm_way_id":"386668435","other_tags":{"addr:city":"Horsforth","addr:housenumber":"207-209","addr:postcode":"LS18 4DR","addr:street":"New Road Side","cuisine":"greek","delivery":"no","fhrs:id":"831726","opening_hours":"Mo,We,Th 12:00-23:00; Fr,Sa 12:00-23:00; Su 12:00-22:00; Tu closed","phone":"+44 113 469 0927","smoking":"no","takeaway":"no","website":"http://www.theagora.co.uk/"}},"type":"Feature"},
	{"geometry":{"coordinates":[[[[-1.6419852,53.832202],[-1.6422879,53.8322107],[-1.6422809,53.8322945],[-1.6423317,53.832296],[-1.6423294,53.8323237],[-1.6423293,53.8323443],[-1.642438,53.8323478],[-1.6424353,53.8323884],[-1.6419817,53.8323609],[-1.6419824,53.8323304],[-1.6419848,53.8322206],[-1.6419852,53.832202]]]],"type":"MultiPolygon"},"properties":{"amenity":"restaurant","building":"yes","name":"Banyan","osm_way_id":"388470012","other_tags":{"addr:city":"Horsforth","addr:housenumber":"106-108","addr:postcode":"LS18 4QB","addr:street":"New Road Side","fhrs:id":"957583","opening_hours":"Mo-We 12:00-22:00; Th 11:00-23:00; Fr 11:00-24:30; Sa 10:30-24:30; Su 10:30-22:00","phone":"+44 113 258 8439","website":"https://www.banyanbar.co.uk/bars/horsforth"}},"type":"Feature"},
	{"geometry":{"coordinates":[[[[-1.6207728,53.8387598],[-1.6206772,53.8388054],[-1.6205305,53.8387216],[-1.6204882,53.8386974],[-1.6205939,53.8386458],[-1.6207728,53.8387598]]]],"type":"MultiPolygon"},"properties":{"amenity":"restaurant","building":"yes","name":"Golden Bengal","osm_way_id":"389006878","other_tags":{"addr:postcode":"LS18 5NY","addr:street":"Low Lane","addr:town":"Horsforth","cuisine":"indian","fhrs:id":"323273"}},"type":"Feature"},
	{"geometry":{"coordinates":[[[[-1.629758,53.8373908],[-1.629689,53.8374333],[-1.6295328,53.837345],[-1.6295809,53.8373153],[-1.6296351,53.8373459],[-1.6296559,53.8373331],[-1.629758,53.8373908]]]],"type":"MultiPolygon"},"properties":{"amenity":"fast_food","building":"house","name":"168 Chinese Takeaway","osm_way_id":"563217835","other_tags":{"addr:city":"Leeds","addr:housenumber":"17","addr:postcode":"LS18 4HE","addr:street":"Alexandra Road","addr:suburb":"Horsforth","cuisine":"chinese","fhrs:id":"1522965"}},"type":"Feature"}
],"type":"FeatureCollection"}