{"features":[
	{"geometry":{"coordinates":[-1.6412577,53.8376391],"type":"Point"},"properties":{"osm_id":"10696893972","other_tags":{"addr:city":"Horsforth","addr:housename":"Suite 1, Tithe House","addr:postcode":"LS18 5LJ","addr:street":"Town Street","gender":"female","leisure":"fitness_centre","opening_hours":"Mo-Th 08:00-20:00; Fr 08:00-19:00; Sa 08:00-14:00","phone":"0113 318 4898"}},"type":"Feature"},
	{"geometry":{"coordinates":[-1.6316654,53.8464875],"type":"Point"},"properties":{"name":"W Fitness","osm_id":"10697262896","other_tags":{"addr:city":"Horsforth","addr:housename":"Unit 1 Park Centre","addr:postcode":"LS18 5NX","addr:street":"Station Road","gender":"female","leisure":"fitness_centre","opening_hours":"Mo-Tu 09:00-14:00,16:00-19:30; We 09:14:00,16:00-20:00; Th-Fr 09:00-14:00,16:00-19:00; Sa-Su 09:00-12:00","phone":"+44 113 345 2550","sport":"fitness","website":"https://www.wfitness.co.uk/"}},"type":"Feature"},
	{"geometry":{"coordinates":[[[[-1.6660617,53.8339041],[-1.6657361,53.8337112],[-1.6655711,53.8338082],[-1.6658967,53.8340011],[-1.6660617,53.8339041]]]],"type":"MultiPolygon"},"properties":{"building":"commercial","leisure":"fitness_centre","name":"COR Personal Fitness","osm_way_id":"391920961","other_tags":{"addr:city":"Leeds","addr:housename":"Unit 1","addr:postcode":"LS18 4EF","addr:street":"Low Hall Road","addr:suburb":"Horsforth"}},"type":"Feature"}
],"type":"FeatureCollection"}