{"features":[
	{"geometry":{"coordinates":[-1.641932,53.8369739],"type":"Point"},"properties":{"name":"Tonic","osm_id":"2430356591","other_tags":{"addr:city":"Leeds","addr:housenumber":"12B","addr:postcode":"LS18 4RJ","addr:street":"Town Street","addr:suburb":"Horsforth","opening_hours":"Mo-Fr 09:00-16:30; Sa 09:00-12:30","phone":"+44 113 258 8841","shop":"hairdresser"}},"type":"Feature"},
	{"geometry":{"coordinates":[-1.6418571,53.8372496],"type":"Point"},"properties":{"name":"Rony's Barbers","osm_id":"3886297907","other_tags":{"addr:city":"Leeds","addr:housenumber":"19","addr:postcode":"LS18 5LJ","addr:street":"Town Street","addr:suburb":"Horsforth","check_date:opening_hours":"2023-01-23","opening_hours":"Mo-Sa 08:30-17:30; Su 11:00-15:00","shop":"hairdresser"}},"type":"Feature"},
	{"geometry":{"coordinates":[-1.6384627,53.839284],"type":"Point"},"properties":{"name":"Horsforth Town St. Barbers","osm_id":"3887784698","other_tags":{"addr:city":"Leeds","addr:housenumber":"94","addr:postcode":"LS18 4AP","addr:street":"Town Street","addr:suburb":"Horsforth","opening_hours":"Mo 07:30-17:30; Tu,Su off; We-Fr 07:30-17:30; Sa 07:30-16:30","shop":"hairdresser"}},"type":"Feature"},
	{"geometry":{"coordinates":[-1.6393935,53.8389018],"type":"Point"},"properties":{"name":"Auriole Hair Salon","osm_id":"3887830123","other_tags":{"addr:city":"Leeds","addr:housenumber":"85D","addr:postcode":"LS18 5BP","addr:street":"Town Street","addr:suburb":"Horsforth","opening_hours":"Tu-Fr 09:30-18:00; Sa 08:00-16:00; Su-Mo Closed","phone":"+44 113 259 0912","shop":"hairdresser","website":"http://www.auriolehair.co.uk/"}},"type":"Feature"},
	{"geometry":{"coordinates":[-1.6389405,53.8391902],"type":"Point"},"properties":{"name":"Squire","osm_id":"3887830144","other_tags":{"addr:city":"Leeds","addr:housenumber":"91","addr:postcode":"LS18 5BP","addr:street":"Town Street","addr:suburb":"Horsforth","opening_hours":"Mo 08:00-17:00; Tu 08:15-17:00; We 08:15-17:00; Th 08:15-18:00; Fr 08:15-18:00; Sa 07:00-15:00","phone":"+44 113 259 0605","shop":"hairdresser"}},"type":"Feature"},
	{"geometry":{"coordinates":[-1.6375507,53.8400077],"type":"Point"},"properties":{"name":"R & A Fuller Hair World","osm_id":"3892020073","other_tags":{"addr:city":"Leeds","addr:housenumber":"111","addr:postcode":"LS18 5BL","addr:street":"Town Street","addr:suburb":"Horsforth","check_date:opening_hours":"2023-01-16","opening_hours:signed":"no","phone":"+44 113 281 8141","shop":"hairdresser"}},"type":"Feature"},
	{"geometry":{"coordinates":[-1.6334172,53.8466474],"type":"Point"},"properties":{"name":"Lion & Co. Barbers","osm_id":"3898525377","other_tags":{"addr:city":"Leeds","addr:housenumber":"11","addr:postcode":"LS18 5PA","addr:street":"Station Road","addr:suburb":"Horsforth","opening_hours":"Tu-Fr 09:00-17:30; Sa 09:00-15:30; Su-Mo Closed","phone":"+44 7717 368511","shop":"hairdresser"}},"type":"Feature"},
	{"geometry":{"coordinates":[-1.631825,53.8469724],"type":"Point"},"properties":{"name":"Platform 1","osm_id":"3898601892","other_tags":{"addr:city":"Horsforth","addr:housenumber":"29","addr:postcode":"LS18 5PA","addr:street":"Station Road","phone":"+44 113 258 4453","shop":"hairdresser"}},"type":"Feature"},
	{"geometry":{"coordinates":[-1.6480122,53.8333059],"type":"Point"},"properties":{"name":"Anthony James","osm_id":"3900180356","other_tags":{"addr:city":"Horsforth","addr:housenumber":"255","addr:postcode":"LS18 4DR","addr:street":"New Road Side","opening_hours":"Tu-Fr 09:30-18:00; Sa 08:30-17:00; Su Closed","shop":"hairdresser"}},"type":"Feature"},
	{"geometry":{"coordinates":[-1.6421575,53.8320081],"type":"Point"},"properties":{"name":"Crooked Crown","osm_id":"3904761974","other_tags":{"addr:city":"Horsforth","addr:housenumber":"105","addr:postcode":"LS18 4QD","addr:street":"New Road Side","check_date:opening_hours":"2023-01-09","opening_hours:signed":"no","shop":"hairdresser"}},"type":"Feature"},
	{"geometry":{"coordinates":[-1.6417326,53.831991],"type":"Point"},"properties":{"name":"Bev @ Michael Laurence","osm_id":"3904761988","other_tags":{"addr:city":"Horsforth","addr:housenumber":"95","addr:postcode":"LS18 4QD","addr:street":"New Road Side","check_date:opening_hours":"2023-01-09","opening_hours:signed":"no","phone":"+44 113 258 3365","shop":"hairdresser"}},"type":"Feature"},
	{"geometry":{"coordinates":[-1.6410439,53.8321932],"type":"Point"},"properties":{"name":"Fade Station Barber Shop","osm_id":"3916676792","other_tags":{"addr:city":"Horsforth","addr:housenumber":"90","addr:postcode":"LS18 4QB","addr:street":"New Road Side","shop":"hairdresser"}},"type":"Feature"},
	{"geometry":{"coordinates":[-1.6408929,53.8322735],"type":"Point"},"properties":{"name":"Top Mens Barbers","osm_id":"3916676794","other_tags":{"shop":"hairdresser"}},"type":"Feature"},
	{"geometry":{"coordinates":[-1.6309229,53.8469019],"type":"Point"},"properties":{"name":"Mousie Browns","osm_id":"7126021301","other_tags":{"addr:city":"Leeds","addr:housenumber":"58","addr:postcode":"LS18 5NR","addr:street":"Station Road","addr:suburb":"Horsforth","check_date:opening_hours":"2023-01-16","opening_hours:signed":"no","shop":"hairdresser"}},"type":"Feature"},
	{"geometry":{"coordinates":[-1.635416,53.8493119],"type":"Point"},"properties":{"name":"LEFTFIELD HAIR","osm_id":"8696633005","other_tags":{"addr:city":"Leeds","addr:housename":"LEFTFIELD HAIR","addr:housenumber":"25","addr:postcode":"LS18 5PP","addr:street":"Brownberrie Drive","brand":"LEFTFIELD HAIR","email":"steve@leftfieldhair.co.uk","internet_access":"wlan","opening_hours":"Mo-Sa 08:00-18:00","operator":"Steven Haggerty","payment:cash":"yes","payment:coins":"yes","payment:credit_cards":"yes","payment:debit_cards":"yes","payment:electronic_purses":"yes","payment:maestro":"yes","payment:notes":"yes","phone":"+44 7976212485","shop":"hairdresser","website":"https://www.leftfieldhair.co.uk"}},"type":"Feature"},
	{"geometry":{"coordinates":[-1.631811,53.8465061],"type":"Point"},"properties":{"name":"Horsforth Hair Lounge","osm_id":"10697262895","other_tags":{"addr:city":"Horsforth","addr:housename":"Unit 8 Park Centre","addr:street":"Station Road","phone":"+44 1132 590300","shop":"hairdresser"}},"type":"Feature"},
	{"geometry":{"coordinates":[[[[-1.6332402,53.8463512],[-1.6332997,53.8464868],[-1.6331568,53.8465087],[-1.6330972,53.8463731],[-1.6332402,53.8463512]]]],"type":"MultiPolygon"},"properties":{"building":"yes","name":"Total Being","osm_way_id":"372433142","other_tags":{"addr:city":"Horsforth","addr:housenumber":"16","addr:postcode":"LS18 5NR","addr:street":"Station Road","phone":"+44 113 258 6465"},"shop":"hairdresser"},"type":"Feature"},
	{"geometry":{"coordinates":[[[[-1.642537,53.836528],[-1.6426618,53.8364211],[-1.6425954,53.8363907],[-1.6425413,53.8364386],[-1.6425176,53.8364595],[-1.6423902,53.8364097],[-1.6423426,53.8364548],[-1.642356,53.8364591],[-1.6424566,53.8364974],[-1.642537,53.836528]]]],"type":"MultiPolygon"},"properties":{"building":"yes","name":"No. 2 The Green","osm_way_id":"385230902","other_tags":{"addr:city":"Leeds","addr:housenumber":"2-3","addr:postcode":"LS18 4RH","addr:street":"The Green","addr:suburb":"Horsforth","check_date:opening_hours":"2023-01-15","opening_hours":"Su-Mo Closed; Tu-We 09:00-18:00; Th 11:00-20:00; Fr-Sa 09:00-17:00","opening_hours:signed":"no","phone":"+44 113 258 8895"},"shop":"hairdresser"},"type":"Feature"}
],"type":"FeatureCollection"}