{"features":[
	{"geometry":{"coordinates":[-1.6355463,53.8397991],"type":"Point"},"properties":{"amenity":"pharmacy","name":"Lloyds Pharmacy","osm_id":"1221664653","other_tags":{"brand":"Lloyds Pharmacy","brand:wikidata":"Q6662870","brand:wikipedia":"en:LloydsPharmacy","healthcare":"pharmacy"}},"type":"Feature"},
	{"geometry":{"coordinates":[-1.6392722,53.8386572],"type":"Point"},"properties":{"amenity":"pharmacy","name":"Well Pharmacy","osm_id":"2430356589","other_tags":{"addr:city":"Leeds","addr:housenumber":"74","addr:postcode":"LS18 4AP","addr:street":"Town Street","addr:suburb":"Horsforth","branch":"Horsforth","brand":"Well Pharmacy","brand:wikidata":"Q7726524","brand:wikipedia":"en:Well Pharmacy","drive_through":"no","healthcare":"pharmacy","opening_hours":"Mo-Fr 09:00-18:00; Su off; Sa 09:00-13:00","phone":"+44 113 258 2436"}},"type":"Feature"},
	{"geometry":{"coordinates":[-1.6409752,53.832191],"type":"Point"},"properties":{"amenity":"pharmacy","name":"Mitchell's Chemist","osm_id":"2431404197","other_tags":{"addr:city":"Leeds","addr:housenumber":"88","addr:postcode":"LS18 4QB","addr:street":"New Road Side","addr:suburb":"Horsforth","healthcare":"pharmacy","opening_hours":"Mo-Fr 09:00-18:00; Sa 09:00-13:00","operator":"Pharmcare Ltd","phone":"+44 113 2582639","shop":"chemist"}},"type":"Feature"},
	{"geometry":{"coordinates":[-1.6373749,53.8398978],"type":"Point"},"properties":{"amenity":"dentist","name":"Ivory Dental","osm_id":"3892020060","other_tags":{"addr:city":"Leeds","addr:housenumber":"108-110","addr:postcode":"LS18 4AH","addr:street":"Town Street","addr:suburb":"Horsforth","healthcare":"dentist","opening_hours":"Mo-Th 08:30-19:00; Fr 08:00-17:30; Su off","phone":"+44 113 258 3349","website":"http://www.ivory-dental.co.uk/"}},"type":"Feature"},
	{"geometry":{"coordinates":[-1.6307143,53.846859],"type":"Point"},"properties":{"amenity":"dentist","name":"Horsforth Dental Practice","osm_id":"3898747304","other_tags":{"addr:city":"Leeds","addr:housenumber":"2","addr:postcode":"LS18 5NQ","addr:street":"Troy Road","addr:suburb":"Horsforth","healthcare":"dentist","opening_hours":"Mo 08:30-13:00,14:00-18:00; Tu 08:30-13:00,14:00-17:30; We 08:30-13:00,14:00-17:30; Th 09:00-13:00,14:00-17:30; Fr 09:00-13:00,13:30-16:00; Sa 09:00-13:00","phone":"+44 113 258 2180","website":"http://www.horsforthdentalpractice.co.uk/"}},"type":"Feature"},
	{"geometry":{"coordinates":[-1.6479074,53.8332609],"type":"Point"},"properties":{"amenity":"dentist","name":"Perfect Smile Clinic","osm_id":"3900193758","other_tags":{"addr:city":"Leeds","addr:housenumber":"251","addr:postcode":"LS18 4DR","addr:street":"New Road Side","addr:suburb":"Horsforth","healthcare":"dentist","opening_hours":"Mo-Fr 08:45-12:30, Mo,Tu,Th,Fr 13:30-17:00, We 13:30-18:00"}},"type":"Feature"},
	{"geometry":{"coordinates":[-1.6438926,53.8320914],"type":"Point"},"properties":{"amenity":"dentist","name":"The Springs Dental Care","osm_id":"3902978497","other_tags":{"addr:city":"Leeds","addr:housenumber":"139","addr:postcode":"LS18 4QD","addr:street":"New Road Side","addr:suburb":"Horsforth","healthcare":"dentist","opening_hours":"Mo-We,Fr 09:00-17:00; Th 09:00-18:00; Sa 09:00-13:00; Su closed","phone":"+44 113 257 4532","website":"http://www.springsdentalcare.co.uk/"}},"type":"Feature"},
	{"geometry":{"coordinates":[-1.6408139,53.8385302],"type":"Point"},"properties":{"osm_id":"4403460184","other_tags":{"access":"code","emergency":"defibrillator","indoor":"no"}},"type":"Feature"},
	{"geometry":{"coordinates":[-1.6423655,53.8323403],"type":"Point"},"properties":{"osm_id":"6010343288","other_tags":{"defibrillator:location":"External wall facing New Road Side, by external seating","emergency":"defibrillator","indoor":"no"}},"type":"Feature"},
	{"geometry":{"coordinates":[-1.6406241,53.8369918],"type":"Point"},"properties":{"osm_id":"6010343289","other_tags":{"defibrillator:location":"External wall between gate and disabled parking spaces","emergency":"defibrillator"}},"type":"Feature"},
	{"geometry":{"coordinates":[-1.6379054,53.8397971],"type":"Point"},"properties":{"osm_id":"6010343290","other_tags":{"defibrillator:location":"External wall between disabled access ramp and main entrance to Brownlee Stone Centre","emergency":"defibrillator","indoor":"no"}},"type":"Feature"},
	{"geometry":{"coordinates":[-1.630881,53.8469548],"type":"Point"},"properties":{"osm_id":"7126021312","other_tags":{"emergency":"defibrillator","indoor":"no","location":"outside Mousi Browns hairdressers, opposite southern entrance to Horsforth Station on Station Road , Horsforth"}},"type":"Feature"},
	{"geometry":{"coordinates":[-1.6373467,53.8469158],"type":"Point"},"properties":{"osm_id":"8458633715","other_tags":{"emergency":"defibrillator"}},"type":"Feature"},
	{"geometry":{"coordinates":[-1.6627637,53.8312366],"type":"Point"},"properties":{"osm_id":"10181047951","other_tags":{"defibrillator:location":"Outside wall, beside entrance to pavillion","emergency":"defibrillator","indoor":"no"}},"type":"Feature"},
	{"geometry":{"coordinates":[[[[-1.6422687,53.8367676],[-1.6423598,53.8366929],[-1.6422004,53.8366332],[-1.6421191,53.8367075],[-1.6422687,53.8367676]]]],"type":"MultiPolygon"},"properties":{"amenity":"dentist","building":"yes","name":"Horsforth Smile Clinic","osm_way_id":"385230900","other_tags":{"addr:city":"Leeds","addr:housenumber":"2","addr:postcode":"LS18 4RJ","addr:street":"Town Street","addr:suburb":"Horsforth","healthcare":"dentist","opening_hours":"Mo,We-Th 09:00-13:00, 14:00-17:00; Tu 09:00-13:00, 14:00-17:30; Fr 09:00-14:30","phone":"+44 113 258 8780"}},"type":"Feature"},
	{"geometry":{"coordinates":[[[[-1.6366093,53.8407234],[-1.6365128,53.8408207],[-1.6365267,53.8408252],[-1.6366737,53.8408721],[-1.6367072,53.8408381],[-1.6366938,53.840835],[-1.6367584,53.8407739],[-1.6366093,53.8407234]]]],"type":"MultiPolygon"},"properties":{"amenity":"clinic","building":"yes","name":"Manor Health Weight Loss & Skin Clinic","osm_way_id":"385904019","other_tags":{"addr:city":"Leeds","addr:housenumber":"149","addr:postcode":"LS18 5BL","addr:street":"Town Street","addr:suburb":"Horsforth","healthcare":"clinic","opening_hours":"Mo-Tu 10:00-21:00; We 09:30-14:00; Th 09:30-17:00; Fr 09:30-15:00; Sa \"appointments only\"; Su closed","phone":"+44 113 870 0000","website":"https://www.manorhealth.co.uk/"}},"type":"Feature"},
	{"geometry":{"coordinates":[[[[-1.6356187,53.8398596],[-1.6352065,53.839806],[-1.6352973,53.8395624],[-1.6357096,53.8396159],[-1.6356207,53.8398544],[-1.6356187,53.8398596]]]],"type":"MultiPolygon"},"properties":{"amenity":"doctors","building":"yes","name":"The New Croft Surgery","osm_way_id":"385904040","other_tags":{"addr:city":"Leeds","addr:housename":"Goldenbank House","addr:postcode":"LS18 4SE","addr:street":"Broadgate Lane","addr:suburb":"Horsforth","healthcare":"doctor","opening_hours":"Mo,Tu,Th 08:00-18:00; We,Fr 07:00-18:00; Sa closed; Su closed","website":"https://www.irelandwoodandnewcroft.co.uk/"}},"type":"Feature"},
	{"geometry":{"coordinates":[[[[-1.6394452,53.8318492],[-1.6392276,53.8318202],[-1.6392584,53.8317396],[-1.6394761,53.8317686],[-1.6394452,53.8318492]]]],"type":"MultiPolygon"},"properties":{"amenity":"doctors","building":"yes","name":"Fieldhead Surgery","osm_way_id":"387159116","other_tags":{"addr:city":"Leeds","addr:housenumber":"65","addr:postcode":"LS18 4JY","addr:street":"New Road Side","addr:suburb":"Horsforth","healthcare":"doctor","opening_hours":"Mo-Tu 07:00-19:00; We 08:00-20:00; Th-Fr 08:00-19:00; Sa-Su closed","phone":"+44 113 295 3410","website":"https://www.cravenroad-medicalpractice.co.uk/"}},"type":"Feature"}
],"type":"FeatureCollection"}