{"features":[
	{"geometry":{"coordinates":[-1.6288338,53.8293432],"type":"Point"},"properties":{"amenity":"post_box","osm_id":"261933841","other_tags":{"check_date":"2021-01-23","collection_times":"Mo-Fr 09:00, Sa 07:00","operator":"Royal Mail","post_box:type":"wall","royal_cypher":"EIIR","royal_cypher:wikidata":"Q33102113"},"ref":"LS18 260"},"type":"Feature"},
	{"geometry":{"coordinates":[-1.6250028,53.8372118],"type":"Point"},"properties":{"amenity":"post_box","osm_id":"263008848","other_tags":{"operator":"Royal Mail","operator:wikidata":"Q638098","post_box:type":"pillar","royal_cypher":"GVIR","royal_cypher:wikidata":"Q33102169"},"ref":"LS18 896"},"type":"Feature"},
	{"geometry":{"coordinates":[-1.6291811,53.8313014],"type":"Point"},"properties":{"amenity":"post_box","osm_id":"266697730","other_tags":{"operator":"Royal Mail","post_box:type":"lamp"},"ref":"LS18 780"},"type":"Feature"},
	{"geometry":{"coordinates":[-1.633527,53.8400495],"type":"Point"},"properties":{"amenity":"post_box","osm_id":"278843662","other_tags":{"collection_times":"Mo-Fr 18:00; Sa 11:00","operator":"Royal Mail","operator:wikidata":"Q638098","post_box:type":"wall","royal_cypher":"EVIIR","royal_cypher:wikidata":"Q33102324"},"ref":"LS18 577"},"type":"Feature"},
	{"geometry":{"coordinates":[-1.6392542,53.8387997],"type":"Point"},"properties":{"amenity":"post_box","osm_id":"278843710","other_tags":{"collection_times":"Mo-Fr 17:30, Sa 12:15","operator":"Royal Mail","operator:wikidata":"Q638098","post_box:type":"pillar","royal_cypher":"EIIR","royal_cypher:wikidata":"Q33102113"},"ref":"LS18 183"},"type":"Feature"},
	{"geometry":{"coordinates":[-1.6536259,53.8470218],"type":"Point"},"properties":{"amenity":"post_box","osm_id":"493683518","other_tags":{"operator":"Royal Mail","post_box:type":"lamp"},"ref":"LS18 958"},"type":"Feature"},
	{"geometry":{"coordinates":[-1.6567346,53.8365467],"type":"Point"},"properties":{"amenity":"post_box","osm_id":"493792070","other_tags":{"collection_times":"Mo-Fr 09:00; Sa 07:00","operator":"Royal Mail","post_box:type":"lamp"},"ref":"LS18 595"},"type":"Feature"},
	{"geometry":{"coordinates":[-1.6373665,53.8268816],"type":"Point"},"properties":{"amenity":"post_box","osm_id":"518142652","other_tags":{"collection_times":"Mo-Fr 09:00; Sa 07:00; Su off","royal_cypher":"EIIR","royal_cypher:wikidata":"Q33102113"},"ref":"LS13 131"},"type":"Feature"},
	{"geometry":{"coordinates":[-1.6444958,53.8321631],"type":"Point"},"properties":{"amenity":"post_box","osm_id":"1162109812","other_tags":{"collection_times":"Mo-Fr 09:00; Sa 07:00","operator":"Royal Mail","operator:wikidata":"Q638098","post_box:mounting":"wall","post_box:type":"wall","royal_cypher":"GR","royal_cypher:wikidata":"Q33102273"},"ref":"LS18 355D"},"type":"Feature"},
	{"geometry":{"coordinates":[-1.6293363,53.8473076],"type":"Point"},"properties":{"amenity":"post_box","osm_id":"1383526028","other_tags":{"collection_times":"Mo-Fr 17:30; Sa 11:00","operator":"Royal Mail","operator:wikidata":"Q638098","post_box:type":"pillar","royal_cypher":"EIIR"},"ref":"LS16 215"},"type":"Feature"},
	{"geometry":{"coordinates":[-1.6420884,53.829362],"type":"Point"},"properties":{"amenity":"post_box","osm_id":"1696231365","other_tags":{"collection_times":"Mo-Fr 09:00; Sa 07:00","operator":"Royal Mail","operator:wikidata":"Q638098","post_box:type":"pillar","royal_cypher":"EIIR"},"ref":"LS18 412"},"type":"Feature"},
	{"geometry":{"coordinates":[-1.6337709,53.8465365],"type":"Point"},"properties":{"amenity":"post_box","osm_id":"1938693224","other_tags":{"collection_times":"Mo-Fr 17:00, Sa 11:30","operator":"Royal Mail","operator:wikidata":"Q638098","post_box:type":"pillar","royal_cypher":"EIIR","royal_cypher:wikidata":"Q33102113"},"ref":"LS18 115"},"type":"Feature"},
	{"geometry":{"coordinates":[-1.6255516,53.8454868],"type":"Point"},"properties":{"amenity":"post_box","osm_id":"2205040370","other_tags":{"operator":"Royal Mail","operator:wikidata":"Q638098","post_box:type":"pillar","royal_cypher":"EIIR"},"ref":"LS16 949"},"type":"Feature"},
	{"geometry":{"coordinates":[-1.627984,53.8512411],"type":"Point"},"properties":{"amenity":"post_box","osm_id":"2205040380","other_tags":{"brand":"Royal Mail","brand:wikidata":"Q638098","brand:wikipedia":"en:Royal Mail","operator":"Royal Mail","operator:wikidata":"Q638098","post_box:type":"lamp","royal_cypher":"EIIR","royal_cypher:wikidata":"Q33102113"},"ref":"LS16 37"},"type":"Feature"},
	{"geometry":{"coordinates":[-1.6346315,53.8308655],"type":"Point"},"properties":{"amenity":"post_box","osm_id":"2206861057","other_tags":{"collection_times":"Mo-Fr 09:00; Sa 07:00","operator":"Royal Mail","post_box:type":"wall","royal_cypher":"EIIR","royal_cypher:wikidata":"Q33102113"},"ref":"LS18 384"},"type":"Feature"},
	{"geometry":{"coordinates":[-1.6407705,53.8319942],"type":"Point"},"properties":{"amenity":"post_box","osm_id":"2206861059","other_tags":{"collection_times":"Mo-Fr 17:00; Sa 12:00","colour":"gold","commemorates":"Alistair Brownlee","inscription":"This post box has been painted gold by Royal Mail to celebrate Alistair Brownlee Gold Medal Winner London 2012 Olympic Games Triathlon: Men's","operator":"Royal Mail","operator:wikidata":"Q638098","post_box:design":"type_k","post_box:type":"pillar","royal_cypher":"EIIR","royal_cypher:wikidata":"Q33102113"},"ref":"LS18 313"},"type":"Feature"},
	{"geometry":{"coordinates":[-1.6628985,53.8325953],"type":"Point"},"properties":{"amenity":"post_box","osm_id":"2206861062","other_tags":{"collection_times":"Mo-Fr 16:15; Sa 11:00","operator":"Royal Mail","post_box:type":"pillar"},"ref":"LS18 331"},"type":"Feature"},
	{"geometry":{"coordinates":[-1.6504636,53.8341992],"type":"Point"},"properties":{"amenity":"post_box","osm_id":"2206861067","other_tags":{"operator":"Royal Mail","operator:wikidata":"Q638098","post_box:type":"pillar","royal_cypher":"EIIR","royal_cypher:wikidata":"Q33102113"},"ref":"LS18 579"},"type":"Feature"},
	{"geometry":{"coordinates":[-1.6376872,53.8344728],"type":"Point"},"properties":{"amenity":"post_box","osm_id":"2206861071","other_tags":{"operator":"Royal Mail","operator:wikidata":"Q638098","post_box:type":"pillar","royal_cypher":"GR"},"ref":"LS18 578"},"type":"Feature"},
	{"geometry":{"coordinates":[-1.6201999,53.8349174],"type":"Point"},"properties":{"amenity":"post_box","osm_id":"2206861075","other_tags":{"brand":"Royal Mail","brand:wikidata":"Q638098","brand:wikipedia":"en:Royal Mail","operator":"Royal Mail","operator:wikidata":"Q638098","post_box:type":"pillar","royal_cypher":"EIIR","royal_cypher:wikidata":"Q33102113"},"ref":"LS18 581"},"type":"Feature"},
	{"geometry":{"coordinates":[-1.6450992,53.8350793],"type":"Point"},"properties":{"amenity":"post_box","osm_id":"2206861085","other_tags":{"collection_times":"Mo-Fr 09:00, Sa 07:00","operator":"Royal Mail","operator:wikidata":"Q638098","post_box:type":"pillar","royal_cypher":"EIIR"},"ref":"LS18 501"},"type":"Feature"},
	{"geometry":{"coordinates":[-1.6419273,53.8370151],"type":"Point"},"properties":{"amenity":"post_box","osm_id":"2206861088","other_tags":{"collection_times":"Mo-Fr 17:15; Sa 12:30","operator":"Royal Mail","operator:wikidata":"Q638098","post_box:type":"wall","royal_cypher":"EIIR","royal_cypher:wikidata":"Q33102113"},"ref":"LS18 473"},"type":"Feature"},
	{"geometry":{"coordinates":[-1.619855,53.8370983],"type":"Point"},"properties":{"amenity":"post_box","osm_id":"2206861091","other_tags":{"brand":"Royal Mail","brand:wikidata":"Q638098","brand:wikipedia":"en:Royal Mail","operator":"Royal Mail","operator:wikidata":"Q638098","post_box:type":"pillar"},"ref":"LS18 500"},"type":"Feature"},
	{"geometry":{"coordinates":[-1.6298127,53.8375732],"type":"Point"},"properties":{"amenity":"post_box","osm_id":"2206861095","other_tags":{"collection_times":"Mo-Fr 17:30; Sa 11:30; Su off","operator":"Royal Mail","operator:wikidata":"Q638098","post_box:type":"pillar"},"ref":"LS18 59"},"type":"Feature"},
	{"geometry":{"coordinates":[-1.6502408,53.8388634],"type":"Point"},"properties":{"amenity":"post_box","osm_id":"2206861099","other_tags":{"operator":"Royal Mail","post_box:type":"pillar"},"ref":"LS18 761"},"type":"Feature"},
	{"geometry":{"coordinates":[-1.6261424,53.8417743],"type":"Point"},"properties":{"amenity":"post_box","osm_id":"2206861102","other_tags":{"collection_times":"Mo-Fr 09:00, Sa 07:00","operator":"Royal Mail","post_box:type":"wall"},"ref":"LS18 580"},"type":"Feature"},
	{"geometry":{"coordinates":[-1.6354414,53.8418922],"type":"Point"},"properties":{"amenity":"post_box","osm_id":"2206861105","other_tags":{"collection_times":"Mo-Fr 17:00, Sa 11:15","operator":"Royal Mail","operator:wikidata":"Q638098","post_box:design":"type_k","post_box:type":"pillar","royal_cypher":"EIIR","royal_cypher:wikidata":"Q33102113"},"ref":"LS18 462"},"type":"Feature"},
	{"geometry":{"coordinates":[-1.6332059,53.8455995],"type":"Point"},"properties":{"amenity":"post_box","osm_id":"2206861107","other_tags":{"operator":"Royal Mail","operator:wikidata":"Q638098","post_box:type":"meter"},"ref":"LS18 22"},"type":"Feature"},
	{"geometry":{"coordinates":[-1.6396719,53.8490034],"type":"Point"},"properties":{"amenity":"post_box","osm_id":"2206861108","other_tags":{"operator":"Royal Mail","post_box:type":"wall"},"ref":"LS18 116"},"type":"Feature"},
	{"geometry":{"coordinates":[-1.655412,53.8494214],"type":"Point"},"properties":{"amenity":"post_box","osm_id":"2206861109","other_tags":{"operator":"Royal Mail","post_box:type":"wall"},"ref":"LS18 523"},"type":"Feature"},
	{"geometry":{"coordinates":[-1.6415234,53.8586682],"type":"Point"},"properties":{"amenity":"post_box","osm_id":"2206861113","other_tags":{"brand":"Royal Mail","brand:wikidata":"Q638098","brand:wikipedia":"en:Royal Mail","operator":"Royal Mail","operator:wikidata":"Q638098","post_box:type":"wall","royal_cypher":"GVIR","royal_cypher:wikidata":"Q33102169"},"ref":"LS18 49"},"type":"Feature"},
	{"geometry":{"coordinates":[-1.6651241,53.8438384],"type":"Point"},"properties":{"amenity":"post_box","osm_id":"2421187189","other_tags":{"collection_times":"Mo-Fr 09:00; Sa 07:00","operator":"Royal Mail","post_box:type":"lamp","royal_cypher":"EIIR","royal_cypher:wikidata":"Q33102113"},"ref":"LS19 828D"},"type":"Feature"},
	{"geometry":{"coordinates":[-1.6476197,53.8481999],"type":"Point"},"properties":{"amenity":"post_box","osm_id":"8651916543"},"type":"Feature"}
],"type":"FeatureCollection"}