{"features":[
	{"geometry":{"coordinates":[-1.6341409,53.8458621],"type":"Point"},"properties":{"amenity":"pub","name":"The Queens Arms","osm_id":"761999433","other_tags":{"addr:city":"Leeds","addr:housenumber":"99","addr:postcode":"LS18 5AT","addr:street":"Long Row","addr:suburb":"Horsforth","check_date:opening_hours":"2023-01-16","fhrs:id":"1292535","opening_hours":"Mo-We 15:00-23:00; Th 12:00-23:00; Fr 12:00-23:30; Sa 11:30-23:30; Su 12:00-23:00"}},"type":"Feature"},
	{"geometry":{"coordinates":[-1.6440797,53.8321014],"type":"Point"},"properties":{"amenity":"bar","name":"Eden","osm_id":"3902978495","other_tags":{"addr:city":"Leeds","addr:housenumber":"145","addr:postcode":"LS18 4QD","addr:street":"New Road Side","addr:suburb":"Horsforth","opening_hours":"We,Th 15:00-23:00; Fr 15:00-24:00; Sa 12:00-24:00; Su 12:00-23:00"}},"type":"Feature"},
	{"geometry":{"coordinates":[-1.6437132,53.832082],"type":"Point"},"properties":{"amenity":"pub","name":"The Hop Shack","osm_id":"3902978506","other_tags":{"addr:city":"Leeds","addr:housenumber":"135","addr:postcode":"LS18 4QD","addr:street":"New Road Side","addr:suburb":"Horsforth","opening_hours":"Mo-Th 16:00-23:00; Fr 15:00-23:30; Sa 12:00-23:30; Su 12:00-22:00","phone":"+44 1132819148","smoking":"no","takeaway":"yes","website":"https://www.thehopshack.co.uk/"}},"type":"Feature"},
	{"geometry":{"coordinates":[-1.6220793,53.839392],"type":"Point"},"properties":{"amenity":"pub","name":"Woodside Micro Pub","osm_id":"5476149010","other_tags":{"addr:city":"Leeds","addr:housenumber":"258","addr:postcode":"LS18 5DN","addr:street":"Low Lane","addr:suburb":"Horsforth","contact:facebook":"https://www.facebook.com/woodsidemicropub/","fhrs:id":"1202679","old_name":"Pinna Store","opening_hours":"We-Th 17:00-23:00; Fr 16:00-23:00; Sa 15:00-23:00; Su 15:00-22:00"}},"type":"Feature"},
	{"geometry":{"coordinates":[-1.6463328,53.8483376],"type":"Point"},"properties":{"amenity":"bar","name":"StUdio","osm_id":"8164493273","other_tags":{"addr:city":"Leeds","addr:housename":"Leeds Trinity University","addr:postcode":"LS18 5HD","addr:street":"Brownberrie Lane","fhrs:id":"1579666","opening_hours":"Mo,Tu,Th,Fr,Sa,Su 17:00-23:00; We 12:00-23:00","website":"https://www.ltsu.co.uk"}},"type":"Feature"},
	{"geometry":{"coordinates":[-1.6352783,53.8421194],"type":"Point"},"properties":{"amenity":"pub","name":"Granville's Beer & Gin House","osm_id":"10685409958","other_tags":{"addr:city":"Leeds","addr:housenumber":"24","addr:postcode":"LS18 5AA","addr:street":"Long Row","addr:suburb":"Horsforth","opening_hours":"Tu-Th 15:00-23:00; Fr 15:00-24:00; Sa 14:00-24:00; Su 14:00-23:00","website":"https://www.granvilleshouse.co.uk/"}},"type":"Feature"},
	{"geometry":{"coordinates":[[[[-1.6482044,53.8336721],[-1.648085,53.8337441],[-1.6478322,53.8335981],[-1.6479516,53.8335261],[-1.648005,53.833557],[-1.6482044,53.8336721]]]],"type":"MultiPolygon"},"properties":{"amenity":"pub","building":"yes","name":"The Fleece","osm_way_id":"100530173","other_tags":{"addr:city":"Leeds","addr:postcode":"LS18 4DT","addr:street":"New Road Side","addr:suburb":"Horsforth","brand":"John Smiths","fhrs:id":"1069787","food":"yes","opening_hours":"Su,Mo 12:00-22:30; Tu,We 12:00-23:00; Th-Sa 12:00-24:00","outdoor_seating":"yes","smoking":"outside","website":"http://www.thefleecehorsforth.co.uk/"}},"type":"Feature"},
	{"geometry":{"coordinates":[[[[-1.6425131,53.836741],[-1.6426422,53.8368159],[-1.6425426,53.8368843],[-1.6424095,53.8368149],[-1.6425131,53.836741]]]],"type":"MultiPolygon"},"properties":{"amenity":"pub","building":"yes","name":"The Old Kings Arms","osm_way_id":"240232664","other_tags":{"addr:city":"Leeds","addr:postcode":"LS18 5JB","addr:street":"The Green","addr:suburb":"Horsforth","check_date":"2023-05-08","opening_hours":"Mo-Tu 09:00-23:00; We-Th 09:00-23:30; Fr-Sa 09:00-01:00; Su 10:30-00:00","smoking":"outside"}},"type":"Feature"},
	{"geometry":{"coordinates":[[[[-1.6296272,53.8479856],[-1.6294126,53.8479318],[-1.6294019,53.8479081],[-1.6294501,53.8478179],[-1.6296351,53.8478594],[-1.6296513,53.8478416],[-1.6297318,53.8478543],[-1.6297184,53.8479175],[-1.6297398,53.8479824],[-1.6296272,53.8479856]]]],"type":"MultiPolygon"},"properties":{"amenity":"pub","building":"yes","name":"The Fox and Hounds","osm_way_id":"372433833","other_tags":{"addr:city":"Leeds","addr:postcode":"LS16 7BT","addr:street":"Tinshill Road","addr:suburb":"Cookridge","brand":"Ember Inns","brand:wikidata":"Q116272278","contact:website":"https://www.emberinns.co.uk/nationalsearch/yorkshireandthehumber/the-fox-and-hounds-leeds","fhrs:id":"320238","opening_hours":"Mo-Su 11:00-00:00","operator":"Ember Inns","outdoor_seating":"yes","wikidata":"Q26547396"}},"type":"Feature"},
	{"geometry":{"coordinates":[[[[-1.6347586,53.8461589],[-1.6349734,53.8461498],[-1.6349965,53.8463406],[-1.6349605,53.8463421],[-1.6349676,53.8464009],[-1.6349175,53.846403],[-1.6349203,53.8464264],[-1.634831,53.8464302],[-1.6348106,53.8464311],[-1.634803,53.846368],[-1.6347221,53.8463714],[-1.6347055,53.8462343],[-1.6347674,53.8462317],[-1.6347586,53.8461589]]]],"type":"MultiPolygon"},"properties":{"amenity":"pub","building":"yes","name":"The Old Ball","osm_way_id":"372433839","other_tags":{"addr:city":"Leeds","addr:postcode":"LS18 5SB","addr:street":"Brownberrie Lane","addr:suburb":"Horsforth","contact:facebook":"https://en-gb.facebook.com/theoldballhorsforth/","fhrs:id":"841404","opening_hours":"Mo-Th 11:00-23:00; Fr 11:00-12:00; Sa 11:00-24:00; Su 12:00-23:00","outdoor_seating":"yes"}},"type":"Feature"},
	{"geometry":{"coordinates":[[[[-1.6411388,53.8372634],[-1.6413447,53.8373451],[-1.6414741,53.8372878],[-1.6412522,53.8371948],[-1.6411388,53.8372634]]]],"type":"MultiPolygon"},"properties":{"amenity":"pub","building":"yes","name":"The Tavern","osm_way_id":"385229030","other_tags":{"addr:city":"Leeds","addr:housenumber":"16-18","addr:postcode":"LS18 4RJ","addr:street":"Town Street","addr:suburb":"Horsforth","fhrs:id":"1669704","opening_hours":"Mo-Sa 12:00-23:00; Su 12:00-22:00","smoking":"outside"}},"type":"Feature"},
	{"geometry":{"coordinates":[[[[-1.6420679,53.8369183],[-1.6421452,53.8368469],[-1.6420334,53.8368036],[-1.6418372,53.8367276],[-1.6417589,53.8367935],[-1.6420679,53.8369183]]]],"type":"MultiPolygon"},"properties":{"amenity":"bar","building":"yes","name":"Venue Horsforth","osm_way_id":"385229033","other_tags":{"addr:city":"Leeds","addr:housenumber":"8-10","addr:postcode":"LS18 4RJ","addr:street":"Town Street","addr:suburb":"Horsforth","contact:facebook":"https://www.facebook.com/venuehorsforth1/","contact:instagram":"https://www.instagram.com/venuehorsforth/"}},"type":"Feature"},
	{"geometry":{"coordinates":[[[[-1.6423598,53.8366929],[-1.642537,53.836528],[-1.6424566,53.8364974],[-1.642356,53.8364591],[-1.6422004,53.8366332],[-1.6423598,53.8366929]]]],"type":"MultiPolygon"},"properties":{"amenity":"pub","building":"yes","name":"The Black Bull","osm_way_id":"385230901","other_tags":{"addr:city":"Leeds","addr:postcode":"LS18 4RH","addr:street":"The Green","addr:suburb":"Horsforth","fhrs:id":"467463","opening_hours":"Mo,Tu 17:00-21:00; We 17:00-22:00; Th 17:00-21:00; Fr 17:00-24:00+; Sa 14:00-24:00+; Su 14:00-19:00","phone":"+44 113 258 7734","source:addr":"FHRS Open Data"}},"type":"Feature"},
	{"geometry":{"coordinates":[[[[-1.6359782,53.8411723],[-1.6358787,53.8412552],[-1.6359542,53.8412834],[-1.6358541,53.8413652],[-1.6356045,53.8412806],[-1.6356569,53.8412297],[-1.6356985,53.8412406],[-1.6357678,53.8411707],[-1.6357185,53.8411534],[-1.6357509,53.8411152],[-1.6358349,53.8411357],[-1.6359782,53.8411723]]]],"type":"MultiPolygon"},"properties":{"amenity":"pub","building":"yes","name":"The Malt Brewhouse","osm_way_id":"385904028","other_tags":{"addr:city":"Leeds","addr:housenumber":"166","addr:postcode":"LS18 4AQ","addr:street":"Town Street","addr:suburb":"Horsforth","fhrs:id":"1137711","microbrewery":"yes","old_name":"Bar 166","opening_hours":"Tu-Th 15:00-23:00, Fr 12:00-00:30, Sa 12:00-00:30, Su 12:00-22:00","smoking":"outside"}},"type":"Feature"},
	{"geometry":{"coordinates":[[[[-1.6394017,53.8329149],[-1.6392914,53.833012],[-1.6392498,53.8329955],[-1.6391008,53.8329365],[-1.6391255,53.8329147],[-1.6389773,53.8328561],[-1.6390482,53.8327937],[-1.6391123,53.8328191],[-1.6391269,53.8328062],[-1.6394017,53.8329149]]]],"type":"MultiPolygon"},"properties":{"amenity":"pub","building":"yes","name":"Horsforth Hotel","osm_way_id":"389206050","other_tags":{"addr:city":"Leeds","addr:housenumber":"57","addr:postcode":"LS18 4NA","addr:street":"Featherbank Lane","addr:suburb":"Horsforth","brand":"Greene King","brand:wikidata":"Q5564162","contact:phone":"+44 113 2581152","fhrs:id":"321247","opening_hours":"Mo-Th 11:00-23:00; Fr-Sa 11:00-24:00; Su 11:00-22:30","website":"https://www.greeneking-pubs.co.uk/pubs/west-yorkshire/horsforth/"}},"type":"Feature"},
	{"geometry":{"coordinates":[[[[-1.6184568,53.8344683],[-1.6185314,53.8344908],[-1.618688,53.8343106],[-1.6185147,53.8342582],[-1.6184085,53.8343804],[-1.6184568,53.8344683]]]],"type":"MultiPolygon"},"properties":{"amenity":"pub","building":"yes","name":"The Bridge Inn","osm_way_id":"390268539","other_tags":{"addr:city":"Leeds","addr:postcode":"LS18 4HN","addr:street":"Low Lane","addr:suburb":"Horsforth","fhrs:id":"320533","phone":"+44 113 2587339","website":"http://www.warmandfriendly.co.uk/"}},"type":"Feature"},
	{"geometry":{"coordinates":[[[[-1.6647904,53.8278439],[-1.664764,53.8277636],[-1.6645607,53.8277888],[-1.6646522,53.8279423],[-1.6647294,53.8279315],[-1.6646867,53.8278547],[-1.6647904,53.8278439]]]],"type":"MultiPolygon"},"properties":{"amenity":"pub","building":"yes","name":"The Railway Inn","osm_way_id":"391920936","other_tags":{"addr:city":"Leeds","addr:housenumber":"8","addr:postcode":"LS13 1NR","addr:street":"Calverley Bridge","addr:suburb":"Rodley","contact:facebook":"https://www.facebook.com/therailwayinnrodley/","fhrs:id":"322780","not:addr:postcode":"LS13 1NF"}},"type":"Feature"},
	{"geometry":{"coordinates":[[[[-1.635417,53.8424539],[-1.6355852,53.8423262],[-1.6357693,53.8424106],[-1.6356866,53.8424734],[-1.6357285,53.8424927],[-1.6356761,53.8425325],[-1.6356431,53.8425575],[-1.635417,53.8424539]]]],"type":"MultiPolygon"},"properties":{"amenity":"pub","building":"yes","name":"The Brownlee Arms","osm_way_id":"395054026","other_tags":{"addr:city":"Leeds","addr:housenumber":"24","addr:postcode":"LS18 5AA","addr:street":"Long Row","addr:suburb":"Horsforth","fhrs:id":"1604577","opening_hours":"Mo-Fr 12:00-22:00; Sa 10:00-22:00; Su 10:00-21:00","phone":"+44 113 2581608","website":"https://brownleearms.co.uk/"}},"type":"Feature"},
	{"geometry":{"coordinates":[[[[-1.6251036,53.8452164],[-1.6249843,53.8452986],[-1.6249683,53.8452905],[-1.6248104,53.8453996],[-1.6250168,53.8455036],[-1.6250261,53.8454972],[-1.6251003,53.8455346],[-1.6251375,53.8455357],[-1.6252058,53.8454886],[-1.6251773,53.8454741],[-1.6252436,53.8454285],[-1.6252024,53.8454077],[-1.6252384,53.8453829],[-1.6251946,53.8453608],[-1.625277,53.845304],[-1.6251036,53.8452164]]]],"type":"MultiPolygon"},"properties":{"amenity":"pub","building":"yes","name":"Tinshill And Cookridge Club And Institute","osm_way_id":"425714234","other_tags":{"addr:city":"Leeds","addr:postcode":"LS16 6PF","addr:street":"Woodnook Drive","addr:suburb":"Horsforth","fhrs:id":"320342"}},"type":"Feature"},
	{"geometry":{"coordinates":[[[[-1.6378139,53.8266488],[-1.637922,53.8267445],[-1.6377881,53.8267972],[-1.63768,53.8267015],[-1.6378139,53.8266488]]]],"type":"MultiPolygon"},"properties":{"amenity":"pub","building":"yes","name":"Abbey Inn","osm_way_id":"490261310","other_tags":{"addr:city":"Leeds","addr:postcode":"LS13 1EQ","addr:street":"Pollard Lane","fhrs:id":"320061","wikidata":"Q26656276"}},"type":"Feature"}
],"type":"FeatureCollection"}