{"features":[
	{"geometry":{"coordinates":[-1.6373901,53.8469888],"type":"Point"},"properties":{"amenity":"recycling","osm_id":"8458633705","other_tags":{"recycling:glass":"yes","recycling_type":"container"}},"type":"Feature"},
	{"geometry":{"coordinates":[-1.6445456,53.8343989],"type":"Point"},"properties":{"amenity":"recycling","osm_id":"8572815155","other_tags":{"opening_hours":"24/7","opening_hours:covid19":"same","recycling:glass":"no","recycling:glass_bottles":"yes","recycling_type":"container"}},"type":"Feature"},
	{"geometry":{"coordinates":[-1.6407851,53.8389803],"type":"Point"},"properties":{"amenity":"recycling","osm_id":"9063010262","other_tags":{"recycling:glass":"yes","recycling:glass_bottles":"yes","recycling_type":"container"}},"type":"Feature"},
	{"geometry":{"coordinates":[-1.6407387,53.8380496],"type":"Point"},"properties":{"amenity":"recycling","osm_id":"10556611925","other_tags":{"recycling:batteries":"yes","recycling_type":"container"}},"type":"Feature"},
	{"geometry":{"coordinates":[-1.635734,53.8426581],"type":"Point"},"properties":{"amenity":"recycling","osm_id":"10680853027","other_tags":{"operator":"Child & Teenage Cancer & Leukaemia Foundation","phone":"02039 500 761","recycling:clothes":"yes","recycling:shoes":"yes","recycling_type":"container"}},"type":"Feature"},
	{"geometry":{"coordinates":[-1.6357256,53.8426662],"type":"Point"},"properties":{"amenity":"recycling","osm_id":"10680853028","other_tags":{"operator":"Leeds City Council","recycling:glass_bottles":"yes","recycling:glass_brown":"yes","recycling:glass_clear":"yes","recycling:glass_green":"yes","recycling:glass_jars":"yes","recycling:glass_white":"yes","recycling_type":"container"}},"type":"Feature"},
	{"geometry":{"coordinates":[-1.6352728,53.8463001],"type":"Point"},"properties":{"amenity":"recycling","osm_id":"10697300908","other_tags":{"operator":"Child & Teenage Cancer & Leukaemia Foundation","recycling:clothes":"yes","recycling:shoes":"yes","recycling_type":"container"}},"type":"Feature"},
	{"geometry":{"coordinates":[-1.6445205,53.8343939],"type":"Point"},"properties":{"amenity":"recycling","osm_id":"10861339594","other_tags":{"operator":"gree global recycling","recycling:clothes":"yes","recycling:shoes":"yes","recycling_type":"container"}},"type":"Feature"}
],"type":"FeatureCollection"}