{"features":[
	{"geometry":{"coordinates":[-1.6330904,53.8467098],"type":"Point"},"properties":{"name":"Tesco Express","osm_id":"761999435","other_tags":{"addr:city":"Leeds","addr:housenumber":"15","addr:postcode":"LS18 5PA","addr:street":"Station Road","addr:suburb":"Horsforth","brand":"Tesco Express","brand:wikidata":"Q98456772","brand:wikipedia":"en:Tesco","contact:website":"https://www.tesco.com/store-locator/leeds/15-station-rd","fhrs:id":"322085","opening_hours":"Mo-Sa 06:00-23:00","shop":"convenience"}},"type":"Feature"},
	{"geometry":{"coordinates":[-1.6418221,53.8322476],"type":"Point"},"properties":{"name":"The Curtain Shop","osm_id":"1162109886","other_tags":{"addr:city":"Horsforth","addr:housenumber":"102","addr:postcode":"LS18 4QB","addr:street":"New Road Side","phone":"+44 113 2587296","shop":"upholstery"}},"type":"Feature"},
	{"geometry":{"coordinates":[-1.6432465,53.832247],"type":"Point"},"properties":{"name":"David James Interiors","osm_id":"1162109895","other_tags":{"addr:city":"Horsforth","addr:housenumber":"118\u00e2\u0080\u0093120","addr:postcode":"LS18 4QB","addr:street":"New Road Side","opening_hours":"Tu-Fr 09:30-17:00; Sa 09:30-16:00; Su-Mo Closed","phone":"+44 113 2590738","shop":"yes"}},"type":"Feature"},
	{"geometry":{"coordinates":[-1.6419106,53.8322494],"type":"Point"},"properties":{"name":"The Co-operative Funeralcare","osm_id":"1162109998","other_tags":{"addr:city":"Horsforth","addr:housenumber":"104","addr:postcode":"LS18 4QB","addr:street":"New Road Side","brand":"The Co-operative Funeralcare","brand:wikidata":"Q7726521","brand:wikipedia":"en:Co-op Funeralcare","opening_hours":"Mo-Fr 09:00-16:30;Sa-Su \"by appointment\"","phone":"+44 113 2586921","shop":"funeral_directors","website":"https://www.co-operativefuneralcare.co.uk/our-homes/the-co-operative-funeralcare-horsforth-104-new-road-side-leeds"}},"type":"Feature"},
	{"geometry":{"coordinates":[-1.6367964,53.8401062],"type":"Point"},"properties":{"name":"Strands Hair Salon","osm_id":"1221670544","other_tags":{"addr:city":"Leeds","addr:housenumber":"203","addr:postcode":"LS18 5BS","addr:street":"Broadgate Lane","addr:suburb":"Horsforth","opening_hours":"Mo-Sa 09:00-18:00; Su Closed","operator":"Cath Bishop","shop":"hairdresser"}},"type":"Feature"},
	{"geometry":{"coordinates":[-1.6389239,53.8319373],"type":"Point"},"properties":{"name":"Joseph Geldart & Son","osm_id":"1407645498","other_tags":{"shop":"funeral_directors"}},"type":"Feature"},
	{"geometry":{"coordinates":[-1.6368667,53.8315682],"type":"Point"},"properties":{"name":"N S M Newsagents","osm_id":"1407645519","other_tags":{"addr:city":"Leeds","addr:housenumber":"76","addr:postcode":"LS18 4NG","addr:street":"New Road Side","addr:suburb":"Horsforth","fhrs:id":"320525","shop":"newsagent"}},"type":"Feature"},
	{"geometry":{"coordinates":[-1.640564,53.8321885],"type":"Point"},"properties":{"name":"Slow Rise Bakery","osm_id":"1413588965","other_tags":{"addr:city":"Leeds","addr:housenumber":"2a","addr:postcode":"LS18 4LZ","addr:street":"Sunnybank Avenue","addr:suburb":"Horsforth","fhrs:id":"1219911","opening_hours":"Mo-Fr 09:00-15:00; Sa-Su 09:30-15:00","shop":"bakery","website":"https://slowrisebakery.co.uk/"}},"type":"Feature"},
	{"geometry":{"coordinates":[-1.6335553,53.8458528],"type":"Point"},"properties":{"name":"Cave","osm_id":"1938632022","other_tags":{"addr:city":"Horsforth","addr:housename":"Unit 1","addr:postcode":"LS18 5AT","addr:street":"Long Row","email":"sales@thecaveuk.co.uk","old_name":"Triangle","opening_hours":"Mo-Sa 10:00-17:00; Su 11:00-16:00","opening_hours:covid19":"off","phone":"+44 113 239 0777","shop":"furniture","website":"https://thecaveuk.co.uk/"}},"type":"Feature"},
	{"geometry":{"coordinates":[-1.6299482,53.8387649],"type":"Point"},"properties":{"name":"McColl's","osm_id":"2430346521","other_tags":{"addr:housenumber":"77-79","addr:postcode":"LS18 5DU","addr:street":"Broadgate Lane","brand":"McColl's","brand:wikidata":"Q16997477","brand:wikipedia":"en:McColl's","fhrs:id":"321635","opening_hours":"Mo-Sa 06:00-22:00; Su 07:00-22:00","shop":"convenience","source:addr":"FSA Food Hygiene Ratings Database"}},"type":"Feature"},
	{"geometry":{"coordinates":[-1.6400501,53.838057],"type":"Point"},"properties":{"name":"Butchers of Distinction","osm_id":"2430356584","other_tags":{"addr:city":"Leeds","addr:housenumber":"54","addr:postcode":"LS18 4AP","addr:street":"Town Street","addr:suburb":"Horsforth","fhrs:id":"467235","opening_hours":"Mo-Sa 09:00-17:00; Su Closed","phone":"+44 113 258 4702","shop":"butcher"}},"type":"Feature"},
	{"geometry":{"coordinates":[-1.641233,53.8373638],"type":"Point"},"properties":{"name":"Armadillo Toys","osm_id":"2430356587","other_tags":{"addr:city":"Leeds","addr:housenumber":"20","addr:postcode":"LS18 4RJ","addr:street":"Town Street","addr:suburb":"Horsforth","check_date:opening_hours":"2021-08-30","opening_hours":"Mo-Sa 09:30-17:00; Su off","shop":"toys"}},"type":"Feature"},
	{"geometry":{"coordinates":[-1.641932,53.8369739],"type":"Point"},"properties":{"name":"Tonic","osm_id":"2430356591","other_tags":{"addr:city":"Leeds","addr:housenumber":"12B","addr:postcode":"LS18 4RJ","addr:street":"Town Street","addr:suburb":"Horsforth","opening_hours":"Mo-Fr 10:00-19:00; Sa 10:00-18:00","phone":"+44 113 258 8841","shop":"hairdresser"}},"type":"Feature"},
	{"geometry":{"coordinates":[-1.6409752,53.832191],"type":"Point"},"properties":{"amenity":"pharmacy","name":"Mitchell's Chemist","osm_id":"2431404197","other_tags":{"addr:city":"Horsforth","addr:housenumber":"88","addr:postcode":"LS18 4QB","addr:street":"New Road Side","healthcare":"pharmacy","opening_hours":"Mo-Sa 09:00-13:00, Mo-Fr 14:00-18:00","operator":"Pharmcare Ltd","phone":"+44 113 2582639","shop":"chemist"}},"type":"Feature"},
	{"geometry":{"coordinates":[-1.6422665,53.8369331],"type":"Point"},"properties":{"name":"Base","osm_id":"3886297891","other_tags":{"addr:city":"Leeds","addr:housenumber":"3-5","addr:postcode":"LS18 4AP","addr:street":"Town Street","addr:suburb":"Horsforth","phone":"+44 113 258 8425","shop":"beauty"}},"type":"Feature"},
	{"geometry":{"coordinates":[-1.6419201,53.8372232],"type":"Point"},"properties":{"name":"Althams travel","osm_id":"3886297906","other_tags":{"addr:city":"Leeds","addr:housenumber":"17","addr:postcode":"LS18 4RJ","addr:street":"Town Street","addr:suburb":"Horsforth","shop":"travel_agency"}},"type":"Feature"},
	{"geometry":{"coordinates":[-1.6418571,53.8372496],"type":"Point"},"properties":{"name":"Rony's Barbers","osm_id":"3886297907","other_tags":{"addr:city":"Leeds","addr:housenumber":"19","addr:postcode":"LS18 5LJ","addr:street":"Town Street","addr:suburb":"Horsforth","opening_hours":"Mo-Sa 08:30-17:30; Su 11:00-15:00","shop":"hairdresser"}},"type":"Feature"},
	{"geometry":{"coordinates":[-1.6417971,53.8372736],"type":"Point"},"properties":{"name":"Simply Dry Clean","osm_id":"3886297908","other_tags":{"addr:city":"Leeds","addr:housenumber":"19A","addr:postcode":"LS18 5LJ","addr:street":"Town Street","addr:suburb":"Horsforth","opening_hours":"Mo-Sa 09:00-17:00","phone":"+44 1132 584 137","shop":"dry_cleaning","website":"http://www.simplydrycleaners.co.uk/"}},"type":"Feature"},
	{"geometry":{"coordinates":[-1.64173,53.8373051],"type":"Point"},"properties":{"name":"Once Upon A Vine","osm_id":"3886297915","other_tags":{"addr:city":"Leeds","addr:housenumber":"21","addr:postcode":"LS18 5LJ","addr:street":"Town Street","addr:suburb":"Horsforth","fhrs:id":"1084159","old_name":"Cats Protection","shop":"alcohol"}},"type":"Feature"},
	{"geometry":{"coordinates":[-1.6416813,53.8373208],"type":"Point"},"properties":{"name":"Spider Pie","osm_id":"3886297916","other_tags":{"addr:city":"Leeds","addr:housenumber":"23","addr:postcode":"LS18 5LJ","addr:street":"Town Street","addr:suburb":"Horsforth","shop":"toys"}},"type":"Feature"},
	{"geometry":{"coordinates":[-1.6411183,53.8376667],"type":"Point"},"properties":{"name":"Betfred","osm_id":"3886297929","other_tags":{"addr:city":"Leeds","addr:housenumber":"37","addr:postcode":"LS18 5LJ","addr:street":"Town Street","addr:suburb":"Horsforth","brand":"Betfred","brand:wikidata":"Q4897425","brand:wikipedia":"en:Betfred","opening_hours":"Mo-Sa 09:00-21:30; Su 10:00-21:30","shop":"bookmaker"}},"type":"Feature"},
	{"geometry":{"coordinates":[-1.6400167,53.8380856],"type":"Point"},"properties":{"name":"Pink Nails","osm_id":"3886416657","other_tags":{"addr:city":"Leeds","addr:housenumber":"56","addr:postcode":"LS18 4AP","addr:street":"Town Street","addr:suburb":"Horsforth","opening_hours":"Mo-Sa 09:30-18:30; Su Closed","phone":"+44 113 345 2901","shop":"beauty","website":"https://www.facebook.com/pinknails"}},"type":"Feature"},
	{"geometry":{"coordinates":[-1.6395741,53.8383955],"type":"Point"},"properties":{"name":"Absolute","osm_id":"3886416679","other_tags":{"addr:city":"Leeds","addr:housenumber":"64","addr:postcode":"LS18 4AP","addr:street":"Town Street","addr:suburb":"Horsforth","phone":"+44 113 239 0100","shop":"beauty","website":"http://www.absolutebeautyleeds.com/"}},"type":"Feature"},
	{"geometry":{"coordinates":[-1.6395376,53.8384363],"type":"Point"},"properties":{"name":"Harriet's","osm_id":"3886416680","other_tags":{"addr:city":"Leeds","addr:housenumber":"66","addr:postcode":"LS18 4AP","addr:street":"Town Street","addr:suburb":"Horsforth","phone":"+44 113 239 0399","shop":"clothes","website":"http://www.harrietsclothing.co.uk/"}},"type":"Feature"},
	{"geometry":{"coordinates":[-1.6393277,53.8385936],"type":"Point"},"properties":{"name":"Hays Travel","osm_id":"3887782348","other_tags":{"addr:city":"Leeds","addr:housenumber":"70","addr:postcode":"LS18 4AP","addr:street":"Town Street","addr:suburb":"Horsforth","brand":"Hays Travel","brand:wikidata":"Q70250954","brand:wikipedia":"en:Hays Travel","opening_hours":"Mo-We,Fr-Sa 09:30-17:00; Th 10:00-17:00; Su Closed","phone":"+44 844 335 7420","shop":"travel_agency"}},"type":"Feature"},
	{"geometry":{"coordinates":[-1.6391905,53.8387322],"type":"Point"},"properties":{"name":"Scrivens Opticians","osm_id":"3887782354","other_tags":{"addr:city":"Leeds","addr:housenumber":"78","addr:postcode":"LS18 4AP","addr:street":"Town Street","addr:suburb":"Horsforth","opening_hours":"Mo-Fr 09:00-17:30; Sa 09:00-17:00; Su Closed","phone":"+44 113 258 2574","shop":"optician","website":"http://scrivensopticians.com/branches/horsforth/"}},"type":"Feature"},
	{"geometry":{"coordinates":[-1.6384627,53.839284],"type":"Point"},"properties":{"name":"Stacey Wright","osm_id":"3887784698","other_tags":{"addr:city":"Leeds","addr:housenumber":"94","addr:postcode":"LS18 4AP","addr:street":"Town Street","addr:suburb":"Horsforth","opening_hours:signed":"no","phone":"+44 113 258 9186","shop":"hairdresser","website":"https://www.facebook.com/Stacey-Wright-Hair-by-Design-horsforth-town-street-115230598576226/"}},"type":"Feature"},
	{"geometry":{"coordinates":[-1.6383291,53.8393637],"type":"Point"},"properties":{"name":"Creativities Courtyard","osm_id":"3887784736","other_tags":{"addr:city":"Leeds","addr:housenumber":"96A","addr:postcode":"LS18 4AP","addr:street":"Town Street","addr:suburb":"Horsforth","shop":"craft"}},"type":"Feature"},
	{"geometry":{"coordinates":[-1.6380435,53.8395438],"type":"Point"},"properties":{"name":"Purely Natural Health Foods","osm_id":"3887784747","other_tags":{"addr:city":"Leeds","addr:housenumber":"98","addr:postcode":"LS18 4AP","addr:street":"Town Street","addr:suburb":"Horsforth","phone":"+44 113 258 0283","shop":"health_food"}},"type":"Feature"},
	{"geometry":{"coordinates":[-1.6380081,53.839572],"type":"Point"},"properties":{"name":"Mini Mee's","osm_id":"3887784748","other_tags":{"addr:city":"Leeds","addr:housenumber":"100","addr:postcode":"LS18 4AP","addr:street":"Town Street","addr:suburb":"Horsforth","shop":"clothes","website":"https://www.facebook.com/Mini-Mees-1417529315186147"}},"type":"Feature"},
	{"geometry":{"coordinates":[-1.6378422,53.8396413],"type":"Point"},"properties":{"name":"The Horsforth Dress Agency","osm_id":"3887789760","other_tags":{"addr:city":"Leeds","addr:housenumber":"102","addr:postcode":"LS18 4AP","addr:street":"Town Street","addr:suburb":"Horsforth","old_name":"Mutley's","opening_hours":"Tu-Sa 10:00-16:00","phone":"+44 113 258 3642","shop":"clothes"}},"type":"Feature"},
	{"geometry":{"coordinates":[-1.6394733,53.8387965],"type":"Point"},"properties":{"name":"Leevans Jewellers","osm_id":"3887830117","other_tags":{"addr:city":"Leeds","addr:housenumber":"85B","addr:postcode":"LS18 5BP","addr:street":"Town Street","addr:suburb":"Horsforth","opening_hours":"Mo-Sa 09:00-17:00; Su Closed","shop":"jewelry"}},"type":"Feature"},
	{"geometry":{"coordinates":[-1.6394356,53.8388411],"type":"Point"},"properties":{"name":"Ideas Unlimited","osm_id":"3887830118","other_tags":{"addr:city":"Leeds","addr:housenumber":"85C","addr:postcode":"LS18 5BP","addr:street":"Town Street","addr:suburb":"Horsforth","opening_hours":"Mo-Fr 09:30-17:30; Sa 09:30-17:00; Su Closed","phone":"+44 113 258 3339","shop":"stationery","website":"https://www.facebook.com/Ideashorsforth"}},"type":"Feature"},
	{"geometry":{"coordinates":[-1.6393935,53.8389018],"type":"Point"},"properties":{"name":"Auriole Hair Salon","osm_id":"3887830123","other_tags":{"addr:city":"Leeds","addr:housenumber":"85D","addr:postcode":"LS18 5BP","addr:street":"Town Street","addr:suburb":"Horsforth","opening_hours":"Tu-Fr 09:30-18:00; Sa 08:00-16:00; Su-Mo Closed","phone":"+44 113 259 0912","shop":"hairdresser","website":"http://www.auriolehair.co.uk/"}},"type":"Feature"},
	{"geometry":{"coordinates":[-1.6392761,53.8390037],"type":"Point"},"properties":{"name":"Beauty By Emily","osm_id":"3887830129","other_tags":{"addr:city":"Leeds","addr:housenumber":"87","addr:postcode":"LS18 5BP","addr:street":"Town Street","addr:suburb":"Horsforth","opening_hours":"Tu,Fr 10:00-18:00; We-Th 10:00-20:00; Sa 09:00-15:00; Su-Mo closed","phone":"+44 113 258 8120","shop":"beauty","website":"https://beautybyemily.net/"}},"type":"Feature"},
	{"geometry":{"coordinates":[-1.6389405,53.8391902],"type":"Point"},"properties":{"name":"Squire","osm_id":"3887830144","other_tags":{"addr:city":"Leeds","addr:housenumber":"91","addr:postcode":"LS18 5BP","addr:street":"Town Street","addr:suburb":"Horsforth","phone":"+44 113 259 0605","shop":"hairdresser"}},"type":"Feature"},
	{"geometry":{"coordinates":[-1.6388078,53.8392643],"type":"Point"},"properties":{"name":"Esquire","osm_id":"3887830146","other_tags":{"addr:city":"Leeds","addr:housenumber":"95","addr:postcode":"LS18 5BP","addr:street":"Town Street","addr:suburb":"Horsforth","opening_hours":"Mo-Fr 07:30-17:30; Sa 07:30-16:00","phone":"+44 113 281 9043","shop":"hairdresser"}},"type":"Feature"},
	{"geometry":{"coordinates":[-1.6373111,53.8399326],"type":"Point"},"properties":{"name":"Hardakers","osm_id":"3892020061","other_tags":{"addr:city":"Leeds","addr:housenumber":"112","addr:postcode":"LS18 4AH","addr:street":"Town Street","addr:suburb":"Horsforth","fhrs:id":"320549","phone":"+44 113 258 3404","shop":"bakery"}},"type":"Feature"},
	{"geometry":{"coordinates":[-1.637056,53.8400582],"type":"Point"},"properties":{"name":"M C Consumables","osm_id":"3892020064","other_tags":{"addr:city":"Leeds","addr:housenumber":"120","addr:postcode":"LS18 4AH","addr:street":"Town Street","addr:suburb":"Horsforth","opening_hours":"Mo-Fr 09:15-17:00; Sa 09:00-13:00; Su Closed","phone":"+44 113 258 5163","shop":"copyshop","website":"http://www.mcconsumables.co.uk/"}},"type":"Feature"},
	{"geometry":{"coordinates":[-1.637005,53.8400895],"type":"Point"},"properties":{"osm_id":"3892020065","other_tags":{"addr:city":"Leeds","addr:housenumber":"122","addr:postcode":"LS18 4AH","addr:street":"Town Street","addr:suburb":"Horsforth","opening_hours":"We-Fr 08:30-16:00; Sa 09:00-13:00","phone":"+44 113 258 5118","shop":"vacant"}},"type":"Feature"},
	{"geometry":{"coordinates":[-1.6375507,53.8400077],"type":"Point"},"properties":{"name":"R & A Fuller Hair World","osm_id":"3892020073","other_tags":{"addr:city":"Leeds","addr:housenumber":"111","addr:postcode":"LS18 5BL","addr:street":"Town Street","addr:suburb":"Horsforth","phone":"+44 113 281 8141","shop":"hairdresser"}},"type":"Feature"},
	{"geometry":{"coordinates":[-1.6374823,53.8400568],"type":"Point"},"properties":{"name":"Zoes Fancy Cakes","osm_id":"3892020074","other_tags":{"addr:city":"Leeds","addr:housenumber":"119","addr:postcode":"LS18 5BL","addr:street":"Town Street","addr:suburb":"Horsforth","fhrs:id":"1018291","opening_hours:signed":"no","shop":"vacant","website":"https://zoesfancycakes.co.uk/"}},"type":"Feature"},
	{"geometry":{"coordinates":[-1.6374153,53.840099],"type":"Point"},"properties":{"name":"Amelia Elliott Bridal","osm_id":"3892020075","other_tags":{"addr:city":"Leeds","addr:housenumber":"121","addr:postcode":"LS18 5BL","addr:street":"Town Street","addr:suburb":"Horsforth","opening_hours":"Mo-Fr 10:00-16:00; Sa 10:00-17:00; Su Closed","phone":"+44 113 258 2783","shop":"clothes","website":"http://www.ameliaelliott.co.uk/"}},"type":"Feature"},
	{"geometry":{"coordinates":[-1.6377887,53.8396782],"type":"Point"},"properties":{"name":"Pictureplace","osm_id":"3892020076","other_tags":{"addr:city":"Leeds","addr:housenumber":"104","addr:postcode":"LS18 4AH","addr:street":"Town Street","addr:suburb":"Horsforth","phone":"+44 113 258 5006","shop":"yes"}},"type":"Feature"},
	{"geometry":{"coordinates":[-1.6360364,53.8411583],"type":"Point"},"properties":{"name":"Dressie Boutique","osm_id":"3892414281","other_tags":{"addr:city":"Leeds","addr:housenumber":"164","addr:postcode":"LS18 4AQ","addr:street":"Town Street","addr:suburb":"Horsforth","opening_hours":"Tu 11:00-15:00; Th 11:00-15:00; Fr 11:00-15:00; Sa 11:00-15:00","phone":"+44 113 318 4683","shop":"clothes","website":"https://www.facebook.com/Dressie-B-Horsforth-1547982788803939"}},"type":"Feature"},
	{"geometry":{"coordinates":[-1.6333229,53.8466625],"type":"Point"},"properties":{"name":"Station Vape","osm_id":"3898525376","other_tags":{"addr:city":"Leeds","addr:housenumber":"11C","addr:postcode":"LS18 5PA","addr:street":"Station Road","addr:suburb":"Horsforth","old_name":"Sliced","shop":"e-cigarette"}},"type":"Feature"},
	{"geometry":{"coordinates":[-1.6334172,53.8466474],"type":"Point"},"properties":{"name":"Lion & Co. Barbers","osm_id":"3898525377","other_tags":{"addr:city":"Leeds","addr:housenumber":"11","addr:postcode":"LS18 5PA","addr:street":"Station Road","addr:suburb":"Horsforth","opening_hours":"Tu-Fr 09:00-17:30; Sa 09:00-15:30; Su-Mo Closed","phone":"+44 7717 368511","shop":"hairdresser"}},"type":"Feature"},
	{"geometry":{"coordinates":[-1.6336793,53.8466057],"type":"Point"},"properties":{"name":"Hardakers","osm_id":"3898525381","other_tags":{"addr:city":"Leeds","addr:housenumber":"5","addr:postcode":"LS18 5PA","addr:street":"Station Road","addr:suburb":"Horsforth","fhrs:id":"320534","shop":"bakery"}},"type":"Feature"},
	{"geometry":{"coordinates":[-1.6318988,53.8469621],"type":"Point"},"properties":{"name":"Station Tattoo","osm_id":"3898601891","other_tags":{"addr:city":"Horsforth","addr:housenumber":"27","addr:postcode":"LS18 5PA","addr:street":"Station Road","opening_hours":"Mo-Sa 10:30-18:00; Su off","phone":"+44 113 225 4908","shop":"vacant"}},"type":"Feature"},
	{"geometry":{"coordinates":[-1.631825,53.8469724],"type":"Point"},"properties":{"name":"Platform 1","osm_id":"3898601892","other_tags":{"addr:city":"Horsforth","addr:housenumber":"29","addr:postcode":"LS18 5PA","addr:street":"Station Road","phone":"+44 113 258 4453","shop":"hairdresser"}},"type":"Feature"},
	{"geometry":{"coordinates":[-1.6484405,53.8335037],"type":"Point"},"properties":{"name":"Select Driveways","osm_id":"3900180355","other_tags":{"addr:city":"Leeds","addr:housenumber":"261","addr:postcode":"LS18 4DR","addr:street":"New Road Side","phone":"+44 113 222 4319","shop":"trade","website":"https://www.selectdriveways.com/"}},"type":"Feature"},
	{"geometry":{"coordinates":[-1.6480122,53.8333059],"type":"Point"},"properties":{"name":"Anthony James","osm_id":"3900180356","other_tags":{"addr:city":"Horsforth","addr:housenumber":"255","addr:postcode":"LS18 4DR","addr:street":"New Road Side","opening_hours":"Tu-Fr 09:30-18:00; Sa 08:30-17:00; Su Closed","shop":"hairdresser"}},"type":"Feature"},
	{"geometry":{"coordinates":[-1.6479575,53.8332855],"type":"Point"},"properties":{"name":"Company Travel Ltd","osm_id":"3900193757","other_tags":{"addr:city":"Horsforth","addr:housenumber":"253","addr:postcode":"LS18 4DR","addr:street":"New Road Side","phone":"+44 113 2590266","shop":"travel_agency","website":"http://www.companytravelltd.co.uk/"}},"type":"Feature"},
	{"geometry":{"coordinates":[-1.6479074,53.8332609],"type":"Point"},"properties":{"name":"2seetv","osm_id":"3900193758","other_tags":{"addr:city":"Horsforth","addr:housenumber":"251","addr:postcode":"LS18 4DR","addr:street":"New Road Side","shop":"electronics","website":"http://www.2seetv.co.uk/"}},"type":"Feature"},
	{"geometry":{"coordinates":[-1.6467572,53.8326634],"type":"Point"},"properties":{"name":"Horsforth Carpet Centre","osm_id":"3900232633","other_tags":{"addr:city":"Horsforth","addr:housenumber":"197","addr:postcode":"LS18 4DR","addr:street":"New Road Side","phone":"+44 113 259 0464","shop":"yes"}},"type":"Feature"},
	{"geometry":{"coordinates":[-1.6449194,53.832199],"type":"Point"},"properties":{"name":"J&L Marshall","osm_id":"3901161757","other_tags":{"addr:city":"Horsforth","addr:housename":"Victoria Works","addr:postcode":"LS18 4DR","addr:street":"New Road Side","opening_hours":"Mo-Fr 07:00-17:00; Sa 07:30-12:00; Su Closed","phone":"+44 113 258 3463","shop":"doityourself","website":"http://www.jandlmarshall.com/"}},"type":"Feature"},
	{"geometry":{"coordinates":[-1.6448655,53.8321922],"type":"Point"},"properties":{"name":"Horsforth Dog Grooming","osm_id":"3901161758","other_tags":{"addr:city":"Horsforth","addr:housenumber":"161A","addr:postcode":"LS18 4DR","addr:street":"New Road Side","opening_hours":"We-Sa 08:00-17:30; Su-Tu Closed","phone":"+44 113 258 3375","shop":"pet","website":"http://horsforthdoggrooming.co.uk/"}},"type":"Feature"},
	{"geometry":{"coordinates":[-1.64479,53.8321844],"type":"Point"},"properties":{"name":"Sew 'n' Sew","osm_id":"3901161759","other_tags":{"addr:city":"Horsforth","addr:housenumber":"161B","addr:postcode":"LS18 4DR","addr:street":"New Road Side","opening_hours":"Mo,Tu,Th,Fr 08:30-17:30; We 09:30-16:30; Sa 11:30-16:30; Su Closed","phone":"+44 113 258 8193","shop":"yes"}},"type":"Feature"},
	{"geometry":{"coordinates":[-1.644706,53.8321781],"type":"Point"},"properties":{"name":"Sophie's Choice","osm_id":"3901161760","other_tags":{"addr:city":"Horsforth","addr:housenumber":"159","addr:postcode":"LS18 4DR","addr:street":"New Road Side","phone":"+44 113 258 8881","shop":"clothes"}},"type":"Feature"},
	{"geometry":{"coordinates":[-1.6446213,53.8321676],"type":"Point"},"properties":{"name":"Cash4Clothes","osm_id":"3901161761","other_tags":{"addr:city":"Horsforth","addr:housenumber":"157","addr:postcode":"LS18 4DR","addr:street":"New Road Side","shop":"clothes"}},"type":"Feature"},
	{"geometry":{"coordinates":[-1.644547,53.8321605],"type":"Point"},"properties":{"name":"Daniel Footwear","osm_id":"3901161762","other_tags":{"addr:city":"Horsforth","addr:housenumber":"155","addr:postcode":"LS18 4DR","addr:street":"New Road Side","opening_hours":"Mo-Sa 09:30-17:30; Su Closed","phone":"+44 113 259 0767","shop":"shoes"}},"type":"Feature"},
	{"geometry":{"coordinates":[-1.6441927,53.8321074],"type":"Point"},"properties":{"name":"Jefferson Hair & Beauty","osm_id":"3902978494","other_tags":{"addr:city":"Horsforth","addr:housenumber":"147","addr:postcode":"LS18 4QD","addr:street":"New Road Side","opening_hours":"Tu,We,Fr 09:00-18:00; Th 09:00-19:00; Sa 09:00-17:00; Su-Mo Closed","phone":"+44 113 259 1531","shop":"hairdresser","website":"http://www.jeffersonhairdressing.co.uk/"}},"type":"Feature"},
	{"geometry":{"coordinates":[-1.6438113,53.832087],"type":"Point"},"properties":{"name":"Sun Station","osm_id":"3902978498","other_tags":{"addr:city":"Horsforth","addr:housenumber":"137","addr:postcode":"LS18 4QD","addr:street":"New Road Side","opening_hours":"Mo-Fr 10:30-19:00; Sa 10:30-18:00; Su 10:30-15:30","phone":"+44 113 258 4870","shop":"beauty","website":"http://www.sunstationonline.com/"}},"type":"Feature"},
	{"geometry":{"coordinates":[-1.6435537,53.8320709],"type":"Point"},"properties":{"name":"Honey Pottery","osm_id":"3902978504","other_tags":{"addr:city":"Horsforth","addr:housenumber":"131","addr:postcode":"LS18 4QD","addr:street":"New Road Side","opening_hours":"Tu-Fr 10:00-17:00; Sa 09:00-18:00; Su 11:00-17:00; Mo Closed","phone":"+44 113 345 1211","shop":"craft","website":"http://www.honeypottery.co.uk/"}},"type":"Feature"},
	{"geometry":{"coordinates":[-1.6434823,53.8320658],"type":"Point"},"properties":{"name":"Vie Hair & Beauty","osm_id":"3902978505","other_tags":{"addr:city":"Horsforth","addr:housenumber":"129","addr:postcode":"LS18 4QD","addr:street":"New Road Side","phone":"+44 113 258 6420","shop":"hairdresser"}},"type":"Feature"},
	{"geometry":{"coordinates":[-1.643163,53.8320344],"type":"Point"},"properties":{"name":"Supreme Angling Ltd","osm_id":"3903000730","other_tags":{"addr:city":"Horsforth","addr:housenumber":"125","addr:postcode":"LS18 4QD","addr:street":"New Road Side","opening_hours":"Mo-Fr 08:30-17:30; Sa 08:30-16:30","phone":"+44 113 281 8539","shop":"fishing","website":"https://www.supremeangling.co.uk/"}},"type":"Feature"},
	{"geometry":{"coordinates":[-1.6430898,53.8320338],"type":"Point"},"properties":{"name":"Bayfields Opticians","osm_id":"3903000731","other_tags":{"addr:city":"Horsforth","addr:housenumber":"123","addr:postcode":"LS18 4QD","addr:street":"New Road Side","opening_hours":"Mo-Th 09:00-17:30; Fr 10:00-17:30; Sa 09:00-17:00; Su Closed","phone":"+44 113 258 2727","shop":"optician","website":"https://www.bayfieldsopticians.com/"}},"type":"Feature"},
	{"geometry":{"coordinates":[-1.6427003,53.8320257],"type":"Point"},"properties":{"name":"Missy","osm_id":"3904386513","other_tags":{"addr:city":"Horsforth","addr:housenumber":"115","addr:postcode":"LS18 4QD","addr:street":"New Road Side","opening_hours":"Mo-Sa 09:30-17:30; Su 11:00-16:00","phone":"+44 113 258 0008","shop":"shoes","website":"https://www.missyuk.co.uk/"}},"type":"Feature"},
	{"geometry":{"coordinates":[-1.6424899,53.8320215],"type":"Point"},"properties":{"name":"Coral","osm_id":"3904386519","other_tags":{"addr:city":"Horsforth","addr:housenumber":"111A","addr:postcode":"LS18 4QD","addr:street":"New Road Side","brand":"Coral","brand:wikidata":"Q54621344","brand:wikipedia":"en:Coral (bookmaker)","shop":"bookmaker"}},"type":"Feature"},
	{"geometry":{"coordinates":[-1.6421575,53.8320081],"type":"Point"},"properties":{"name":"Rose & Bud","osm_id":"3904761974","other_tags":{"addr:city":"Horsforth","addr:housenumber":"105","addr:postcode":"LS18 4QD","addr:street":"New Road Side","opening_hours":"Tu-Fr 09:00-17:00; Sa 09:00-16:00; Su-Mo Closed","phone":"+44 113 258 0946","shop":"florist"}},"type":"Feature"},
	{"geometry":{"coordinates":[-1.6421012,53.8320048],"type":"Point"},"properties":{"name":"No-Match Horsforth","osm_id":"3904761975","other_tags":{"addr:city":"Horsforth","addr:housenumber":"105B","addr:postcode":"LS18 4QD","addr:street":"New Road Side","opening_hours":"Mo-Th 09:00-17:30; Fr 09:00-17:00; Sa 10:00-17:00; Su Closed","shop":"e-cigarette","website":"http://www.no-match.co.uk/storedetails?storeid=Horsforth"}},"type":"Feature"},
	{"geometry":{"coordinates":[-1.6417916,53.8319934],"type":"Point"},"properties":{"name":"Nicola Jane","osm_id":"3904761987","other_tags":{"addr:city":"Horsforth","addr:housenumber":"97","addr:postcode":"LS18 4QD","addr:street":"New Road Side","opening_hours":"Mo-Sa 09:30-17:00; Su Closed","shop":"clothes","website":"https://www.nicolajane.com/leeds-shop/"}},"type":"Feature"},
	{"geometry":{"coordinates":[-1.6417326,53.831991],"type":"Point"},"properties":{"name":"Bev @ Michael Laurence","osm_id":"3904761988","other_tags":{"addr:city":"Horsforth","addr:housenumber":"95","addr:postcode":"LS18 4QD","addr:street":"New Road Side","phone":"+44 113 258 3365","shop":"hairdresser"}},"type":"Feature"},
	{"geometry":{"coordinates":[-1.6417243,53.8319905],"type":"Point"},"properties":{"name":"Beauty Within","osm_id":"3904761989","other_tags":{"addr:city":"Horsforth","addr:housenumber":"95","addr:postcode":"LS18 4QD","addr:street":"New Road Side","opening_hours":"Mo 09:00-18:00; We,Fr 08:00-18:00; Th 08:00-21:00; Sa 09:00-16:00; Su,Tu Closed","phone":"+44 113 258 5277","shop":"beauty"}},"type":"Feature"},
	{"geometry":{"coordinates":[-1.6416003,53.8319836],"type":"Point"},"properties":{"name":"Art of Gold","osm_id":"3904761991","other_tags":{"phone":"+44 113 281 9777","shop":"art","website":"http://www.artofgoldgalleries.co.uk/"}},"type":"Feature"},
	{"geometry":{"coordinates":[-1.6414783,53.8319717],"type":"Point"},"properties":{"name":"Card","osm_id":"3904772151","other_tags":{"addr:city":"Horsforth","addr:housenumber":"89","addr:postcode":"LS18 4QD","addr:street":"New Road Side","phone":"+44 113 281 8433","shop":"stationery"}},"type":"Feature"},
	{"geometry":{"coordinates":[-1.6413828,53.831966],"type":"Point"},"properties":{"name":"RSPCA Leeds Wakefield & District","osm_id":"3904772152","other_tags":{"addr:city":"Horsforth","addr:housenumber":"87","addr:postcode":"LS18 4QD","addr:street":"New Road Side","opening_hours":"Th-Tu 10:00-16:00; We Closed","operator":"RSPCA","shop":"pet","website":"https://www.rspcaleedsandwakefield.org.uk/"}},"type":"Feature"},
	{"geometry":{"coordinates":[-1.6411686,53.831955],"type":"Point"},"properties":{"name":"Zero Muda","osm_id":"3904772959","other_tags":{"addr:city":"Horsforth","addr:housenumber":"85","addr:postcode":"LS18 4QD","addr:street":"New Road Side","brand":"Zero Muda","old_name":"Costa","operator":"Zero Muda","shop":"yes","website":"https://www.zeromuda.co.uk/"}},"type":"Feature"},
	{"geometry":{"coordinates":[-1.6410483,53.8319456],"type":"Point"},"properties":{"name":"Oaks","osm_id":"3904772961","other_tags":{"addr:city":"Horsforth","addr:housenumber":"83","addr:postcode":"LS18 4QD","addr:street":"New Road Side","phone":"+44 113 239 0333","shop":"clothes"}},"type":"Feature"},
	{"geometry":{"coordinates":[-1.6409625,53.8319414],"type":"Point"},"properties":{"name":"The Pet Stop","osm_id":"3904772962","other_tags":{"addr:city":"Horsforth","addr:housenumber":"81","addr:postcode":"LS18 4QD","addr:street":"New Road Side","phone":"+44 113 258 3662","shop":"pet","website":"http://www.thepetstopshop.co.uk/"}},"type":"Feature"},
	{"geometry":{"coordinates":[-1.6408882,53.8319404],"type":"Point"},"properties":{"name":"St Gemma's Hospice","osm_id":"3904772963","other_tags":{"addr:city":"Horsforth","addr:housenumber":"79","addr:postcode":"LS18 4QD","addr:street":"New Road Side","shop":"yes"}},"type":"Feature"},
	{"geometry":{"coordinates":[-1.6406618,53.8319015],"type":"Point"},"properties":{"name":"Hopscotch","osm_id":"3904815769","other_tags":{"addr:city":"Horsforth","addr:housenumber":"75B","addr:postcode":"LS18 4QD","addr:street":"New Road Side","opening_hours":"Mo-Sa 09:00-17:00; Su 10:00-16:00","phone":"+44 113 258 7171","shop":"shoes","website":"https://www.hopscotch-shoes.co.uk/horsforth"}},"type":"Feature"},
	{"geometry":{"coordinates":[-1.6404243,53.8318806],"type":"Point"},"properties":{"name":"Tesco Express","osm_id":"3904815771","other_tags":{"addr:city":"Leeds","addr:housenumber":"75","addr:postcode":"LS18 4QD","addr:street":"New Road Side","addr:suburb":"Horsforth","brand":"Tesco Express","brand:wikidata":"Q98456772","brand:wikipedia":"en:Tesco","contact:website":"https://www.tesco.com/store-locator/leeds/75-new-rd-side","fhrs:id":"321211","opening_hours":"06:00-23:00","operator":"Tesco","phone":"+44 345 026 9421","shop":"convenience"}},"type":"Feature"},
	{"geometry":{"coordinates":[-1.639745,53.8318449],"type":"Point"},"properties":{"name":"Clark's Independence Centre","osm_id":"3904815788","other_tags":{"addr:city":"Horsforth","addr:housenumber":"71","addr:postcode":"LS18 4JX","addr:street":"New Road Side","phone":"+44 113 258 8888","shop":"wheelchair_and_mobility_services","website":"https://www.clarksmobility.com/"}},"type":"Feature"},
	{"geometry":{"coordinates":[-1.6395792,53.8318291],"type":"Point"},"properties":{"name":"Meridian Security","osm_id":"3904815789","other_tags":{"addr:city":"Horsforth","addr:housenumber":"67","addr:postcode":"LS18 4JX","addr:street":"New Road Side","opening_hours":"Mo-Th 09:00-17:00; Fr 09:00-16:00; Sa 09:00-12:30; Su Closed","phone":"+44 113 259 1538","shop":"locksmith"}},"type":"Feature"},
	{"geometry":{"coordinates":[-1.6476011,53.8334472],"type":"Point"},"properties":{"name":"Wharfedale Furniture","osm_id":"3906862939","other_tags":{"addr:city":"Horsforth","addr:housenumber":"194","addr:postcode":"LS18 4DP","addr:street":"New Road Side","opening_hours":"Mo-Su 10:00-17:00","phone":"+44 113 281 8128","shop":"furniture","website":"http://www.wharfedalefurniture.com/"}},"type":"Feature"},
	{"geometry":{"coordinates":[-1.6472307,53.8332974],"type":"Point"},"properties":{"name":"Excel Dry Cleaners","osm_id":"3906862943","other_tags":{"addr:city":"Horsforth","addr:housenumber":"194","addr:postcode":"LS18 4DP","addr:street":"New Road Side","phone":"+44 113 258 8959","shop":"dry_cleaning"}},"type":"Feature"},
	{"geometry":{"coordinates":[-1.6429184,53.8322904],"type":"Point"},"properties":{"name":"Drummond's Kitchens","osm_id":"3916647756","other_tags":{"addr:city":"Horsforth","addr:housenumber":"116","addr:postcode":"LS18 4QB","addr:street":"New Road Side","opening_hours":"Mo-Fr 09:00-17:00; Sa 10:00-16:30; Su Closed","phone":"+44 113 2588588","shop":"kitchen","website":"https://www.drummondskitchens.co.uk/"}},"type":"Feature"},
	{"geometry":{"coordinates":[-1.6414596,53.8322429],"type":"Point"},"properties":{"name":"Choice Cartridges","osm_id":"3916676777","other_tags":{"addr:city":"Horsforth","addr:housenumber":"100","addr:postcode":"LS18 4QB","addr:street":"New Road Side","phone":"+44 113 2686868","shop":"printer_ink","website":"https://www.choicecartridges.com/"}},"type":"Feature"},
	{"geometry":{"coordinates":[-1.6413779,53.8322332],"type":"Point"},"properties":{"name":"Baby Direct","osm_id":"3916676778","other_tags":{"addr:city":"Horsforth","addr:housenumber":"96-98","addr:postcode":"LS18 4QB","addr:street":"New Road Side","opening_hours":"Mo-Sa 10:00-17:00; Su 11:00-16:00","phone":"+44 113 2250505","shop":"baby_goods","website":"http://www.baby-direct.com/"}},"type":"Feature"},
	{"geometry":{"coordinates":[-1.6412166,53.8321967],"type":"Point"},"properties":{"name":"The Beauty Studio","osm_id":"3916676790","other_tags":{"addr:city":"Horsforth","addr:housenumber":"94","addr:postcode":"LS18 4QB","addr:street":"New Road Side","opening_hours":"Mo,Th,Fr 09:00-18:00; Tu,We 09:00-21:00; Sa 08:30-16:30; Su closed","phone":"+44 113 2586500","shop":"beauty","website":"http://www.thebeautystudioleeds.co.uk/"}},"type":"Feature"},
	{"geometry":{"coordinates":[-1.6410439,53.8321932],"type":"Point"},"properties":{"name":"John Scott Hairdressing","osm_id":"3916676792","other_tags":{"addr:city":"Horsforth","addr:housenumber":"90","addr:postcode":"LS18 4QB","addr:street":"New Road Side","phone":"+44 113 2584732","shop":"hairdresser"}},"type":"Feature"},
	{"geometry":{"coordinates":[-1.6408929,53.8322735],"type":"Point"},"properties":{"name":"Top Mens Barbers","osm_id":"3916676794","other_tags":{"shop":"hairdresser"}},"type":"Feature"},
	{"geometry":{"coordinates":[-1.6189911,53.8355808],"type":"Point"},"properties":{"name":"Paradise Grove","osm_id":"3934263614","other_tags":{"addr:city":"Horsforth","addr:housenumber":"27","addr:postcode":"LS18 4RN","addr:street":"Paradise Place","shop":"clothes"}},"type":"Feature"},
	{"geometry":{"coordinates":[-1.6572352,53.8338599],"type":"Point"},"properties":{"name":"Horsforth Pick Your Own","osm_id":"4266396612","other_tags":{"addr:city":"Horsforth","addr:postcode":"LS18 4EB","addr:street":"Calverley Lane","opening_hours":"Jun-Aug: Mo-Su,PH 10:00-19:00 \"Typically open from early June to early August, closes if there's persistent rain\"; Sep-May: closed","shop":"farm","website":"http://www.horsforthpickyourown.co.uk/"}},"type":"Feature"},
	{"geometry":{"coordinates":[-1.6664685,53.8319505],"type":"Point"},"properties":{"name":"Brodie & Flynn","osm_id":"5246808616","other_tags":{"addr:city":"Leeds","addr:housename":"Luxe Studios","addr:housenumber":"24","addr:postcode":"LS18 4FA","addr:street":"Bletchley Avenue","addr:suburb":"Horsforth","fhrs:id":"1266655","opening_hours":"Mo-Tu off;We-Sa 09:30-15:00;Su 09:00-13:00","shop":"bakery"}},"type":"Feature"},
	{"geometry":{"coordinates":[-1.6663277,53.832048],"type":"Point"},"properties":{"name":"The Vale Convenience Store & Off License","osm_id":"5246808617","other_tags":{"addr:city":"Leeds","addr:country":"GB","addr:housenumber":"28","addr:postcode":"LS18 4FA","addr:street":"Bletchley Avenue","addr:suburb":"Horsforth","opening_hours":"Mo-Fr 07:30-21:00;Sa 08:00-21:00;Su 08:30-21:00","shop":"convenience","start_date":"2017-11-25"}},"type":"Feature"},
	{"geometry":{"coordinates":[-1.6411298,53.8383685],"type":"Point"},"properties":{"osm_id":"5415949271","other_tags":{"entrance":"main"}},"type":"Feature"},
	{"geometry":{"coordinates":[-1.640529,53.8379491],"type":"Point"},"properties":{"osm_id":"5415949272","other_tags":{"entrance":"main"}},"type":"Feature"},
	{"geometry":{"coordinates":[-1.6341573,53.8460029],"type":"Point"},"properties":{"name":"Green & Field","osm_id":"5476149006","other_tags":{"addr:city":"Leeds","addr:housenumber":"103","addr:postcode":"LS18 5AT","addr:street":"Long Row","addr:suburb":"Horsforth","old_name":"Hatfield News","old_name2":"House Coffee","shop":"florist"}},"type":"Feature"},
	{"geometry":{"coordinates":[-1.6260912,53.8417678],"type":"Point"},"properties":{"name":"Low Lane Stores","osm_id":"5476149007","other_tags":{"addr:city":"Leeds","addr:housenumber":"191","addr:postcode":"LS18 5QW","addr:street":"Low Lane","addr:suburb":"Horsforth","fhrs:id":"467231","shop":"convenience;alcohol"}},"type":"Feature"},
	{"geometry":{"coordinates":[-1.6212767,53.8373673],"type":"Point"},"properties":{"name":"Broadgate Off Licence","osm_id":"5476149013","other_tags":{"addr:city":"Leeds","addr:housenumber":"1","addr:postcode":"LS18 5DB","addr:street":"Woodville Street","addr:suburb":"Horsforth","fhrs:id":"467233","shop":"convenience;alcohol"}},"type":"Feature"},
	{"geometry":{"coordinates":[-1.6192321,53.8360509],"type":"Point"},"properties":{"amenity":"fast_food","name":"Woodside Stores","osm_id":"5723391064","other_tags":{"addr:city":"Leeds","addr:housenumber":"1","addr:postcode":"LS18 4DE","addr:street":"Paradise Place","addr:suburb":"Horsforth","cuisine":"sandwich","fhrs:id":"320539","shop":"convenience","takeaway":"yes"}},"type":"Feature"},
	{"geometry":{"coordinates":[-1.6309229,53.8469019],"type":"Point"},"properties":{"name":"Mousie Browns","osm_id":"7126021301","other_tags":{"addr:city":"Leeds","addr:housenumber":"58","addr:postcode":"LS18 5NR","addr:street":"Station Road","addr:suburb":"Horsforth","shop":"hairdresser"}},"type":"Feature"},
	{"geometry":{"coordinates":[-1.6329989,53.8457722],"type":"Point"},"properties":{"name":"Screwfix","osm_id":"7126021309","other_tags":{"brand":"Screwfix","brand:wikidata":"Q7439115","brand:wikipedia":"en:Screwfix","opening_hours:covid19":"open","shop":"doityourself"}},"type":"Feature"},
	{"geometry":{"coordinates":[-1.6334066,53.8457816],"type":"Point"},"properties":{"name":"Alba Tyres","osm_id":"7126021310","other_tags":{"shop":"car_parts"}},"type":"Feature"},
	{"geometry":{"coordinates":[-1.6332054,53.8457659],"type":"Point"},"properties":{"osm_id":"7126021330","other_tags":{"shop":"carpet"}},"type":"Feature"},
	{"geometry":{"coordinates":[-1.6458485,53.8477315],"type":"Point"},"properties":{"osm_id":"8651916544","other_tags":{"addr:city":"Leeds","addr:housename":"Leeds Trinity University","addr:postcode":"LS18 5HD","addr:street":"Brownberrie Lane","opening_hours":"24/7","opening_hours:covid19":"same","operator":"Circuit Laundry","phone":"+44 1422 820040","self_service":"yes","shop":"laundry","website":"www.circuit.co.uk","wheelchair":"yes"}},"type":"Feature"},
	{"geometry":{"coordinates":[-1.6475184,53.8484062],"type":"Point"},"properties":{"name":"SU Shop","osm_id":"8651916548","other_tags":{"addr:city":"Leeds","addr:housename":"Leeds Trinity University","addr:postcode":"LS18 5HD","addr:street":"Brownberrie Lane","opening_hours:covid19":"closed","operator":"Leeds Trinity Student's Union","shop":"convenience","website":"www.ltsu.co.uk"}},"type":"Feature"},
	{"geometry":{"coordinates":[-1.635416,53.8493119],"type":"Point"},"properties":{"name":"LEFTFIELD HAIR","osm_id":"8696633005","other_tags":{"addr:city":"Leeds","addr:housename":"LEFTFIELD HAIR","addr:housenumber":"25","addr:postcode":"LS18 5PP","addr:street":"Brownberrie Drive","brand":"LEFTFIELD HAIR","email":"steve@leftfieldhair.co.uk","internet_access":"wlan","opening_hours":"Mo-Sa 08:00-18:00","operator":"Steven Haggerty","payment:cash":"yes","payment:coins":"yes","payment:credit_cards":"yes","payment:debit_cards":"yes","payment:electronic_purses":"yes","payment:maestro":"yes","payment:notes":"yes","phone":"+44 7976212485","shop":"hairdresser","website":"https://www.leftfieldhair.co.uk"}},"type":"Feature"},
	{"geometry":{"coordinates":[[[[-1.6391375,53.831956],[-1.6389577,53.8321031],[-1.639068,53.8321199],[-1.6390609,53.8321346],[-1.6392786,53.8322015],[-1.6394828,53.8320106],[-1.6391375,53.831956]]]],"type":"MultiPolygon"},"properties":{"building":"yes","name":"KD Carpets","osm_way_id":"127110291","shop":"carpet"},"type":"Feature"},
	{"geometry":{"coordinates":[[[[-1.6444221,53.8324159],[-1.6442678,53.8324175],[-1.6442424,53.8322893],[-1.6443926,53.8322925],[-1.6444221,53.8324159]]]],"type":"MultiPolygon"},"properties":{"building":"retail","name":"iPhone Repair Leeds","osm_way_id":"150370271","other_tags":{"addr:city":"Horsforth","addr:housenumber":"122","addr:postcode":"LS18 4QB","addr:street":"New Road Side","phone":"+44 113 259 1500","website":"https://www.iphonerepairleeds.com/"},"shop":"mobile_phone"},"type":"Feature"},
	{"geometry":{"coordinates":[[[[-1.6332402,53.8463512],[-1.6332997,53.8464868],[-1.6331568,53.8465087],[-1.6330972,53.8463731],[-1.6332402,53.8463512]]]],"type":"MultiPolygon"},"properties":{"building":"yes","name":"Total Being","osm_way_id":"372433142","other_tags":{"addr:city":"Horsforth","addr:housenumber":"16","addr:postcode":"LS18 5NR","addr:street":"Station Road","phone":"+44 113 258 6465"},"shop":"hairdresser"},"type":"Feature"},
	{"geometry":{"coordinates":[[[[-1.6283561,53.8426652],[-1.6278804,53.842941],[-1.6277462,53.8428738],[-1.6278072,53.8428331],[-1.6276202,53.8427227],[-1.6279414,53.8425284],[-1.6279983,53.8425572],[-1.6280756,53.8425116],[-1.6283561,53.8426652]]]],"type":"MultiPolygon"},"properties":{"building":"yes","name":"Evans Halshaw","osm_way_id":"381973455","other_tags":{"brand":"Vauxhall"},"shop":"car"},"type":"Feature"},
	{"geometry":{"coordinates":[[[[-1.6408509,53.8375819],[-1.6407838,53.8376136],[-1.6406826,53.8375466],[-1.6407502,53.8375117],[-1.6408509,53.8375819]]]],"type":"MultiPolygon"},"properties":{"building":"yes","name":"Shelter","osm_way_id":"385227148","other_tags":{"addr:city":"Leeds","addr:housenumber":"34","addr:postcode":"LS18 4RJ","addr:street":"Town Street","addr:suburb":"Horsforth","brand":"Shelter","brand:wikidata":"Q7493943","brand:wikipedia":"en:Shelter (charity)","opening_hours":"Mo-Sa 09:00-17:00; Su 11:00-17:00"},"shop":"charity"},"type":"Feature"},
	{"geometry":{"coordinates":[[[[-1.6415606,53.8372257],[-1.6412649,53.8371048],[-1.6413742,53.8370061],[-1.6415407,53.8370769],[-1.6415255,53.83709],[-1.6416855,53.8371603],[-1.6415606,53.8372257]]]],"type":"MultiPolygon"},"properties":{"building":"yes","name":"Cancer Research UK","osm_way_id":"385229031","other_tags":{"addr:city":"Leeds","addr:housenumber":"14","addr:postcode":"LS18 4RJ","addr:street":"Town Street","addr:suburb":"Horsforth","brand":"Cancer Research UK","brand:wikidata":"Q326079","brand:wikipedia":"en:Cancer Research UK","contact:phone":"+44 113 239 0091"},"shop":"charity"},"type":"Feature"},
	{"geometry":{"coordinates":[[[[-1.6421452,53.8368469],[-1.6421705,53.8368245],[-1.6420608,53.836778],[-1.6420334,53.8368036],[-1.6421452,53.8368469]]]],"type":"MultiPolygon"},"properties":{"building":"yes","name":"Queensbury Jewellers","osm_way_id":"385230898","other_tags":{"addr:city":"Leeds","addr:housenumber":"6A","addr:postcode":"LS18 4RJ","addr:street":"Town Street","addr:suburb":"Horsforth","opening_hours":"Mo-Sa 09:00-17:00; Su off"},"shop":"jewelry"},"type":"Feature"},
	{"geometry":{"coordinates":[[[[-1.642537,53.836528],[-1.6426618,53.8364211],[-1.6425954,53.8363907],[-1.6425413,53.8364386],[-1.6425176,53.8364595],[-1.6423902,53.8364097],[-1.6423426,53.8364548],[-1.642356,53.8364591],[-1.6424566,53.8364974],[-1.642537,53.836528]]]],"type":"MultiPolygon"},"properties":{"building":"yes","name":"No. 2 The Green","osm_way_id":"385230902","other_tags":{"addr:city":"Leeds","addr:housenumber":"2-3","addr:postcode":"LS18 4RH","addr:street":"The Green","addr:suburb":"Horsforth","opening_hours":"Su-Mo Closed; Tu-We 09:00-18:00; Th 11:00-20:00; Fr-Sa 09:00-17:00","phone":"+44 113 258 8895"},"shop":"hairdresser"},"type":"Feature"},
	{"geometry":{"coordinates":[[[[-1.6416485,53.8373015],[-1.6415504,53.837338],[-1.6415141,53.8373563],[-1.6415646,53.8373906],[-1.6416043,53.8373735],[-1.6416723,53.8374486],[-1.6417503,53.8374252],[-1.6416485,53.8373015]]]],"type":"MultiPolygon"},"properties":{"building":"retail","name":"Spider Pie","osm_way_id":"385277884","other_tags":{"addr:city":"Leeds","addr:housenumber":"25","addr:postcode":"LS18 5LJ","addr:street":"Town Street","addr:suburb":"Horsforth","opening_hours":"Mo 09:00-13:00; Tu-Sa 09:00-17:00; Su Closed"},"shop":"toys"},"type":"Feature"},
	{"geometry":{"coordinates":[[[[-1.6415037,53.8374459],[-1.6414367,53.8374792],[-1.6415252,53.8375385],[-1.6415909,53.8375037],[-1.6415037,53.8374459]]]],"type":"MultiPolygon"},"properties":{"building":"yes","name":"Max Spielmann","osm_way_id":"385277885","other_tags":{"addr:city":"Leeds","addr:housenumber":"27","addr:postcode":"LS18 5LJ","addr:street":"Town Street","addr:suburb":"Horsforth","brand":"Max Spielmann","brand:wikidata":"Q76221051","opening_hours":"Mo-Sa 09:00-17:30; Su Closed","phone":"+44 113 281 8712"},"shop":"photo"},"type":"Feature"},
	{"geometry":{"coordinates":[[[[-1.6415252,53.8375385],[-1.6414608,53.8375702],[-1.6413825,53.8375183],[-1.6413723,53.8375116],[-1.6414367,53.8374792],[-1.6415252,53.8375385]]]],"type":"MultiPolygon"},"properties":{"building":"yes","name":"St. Gemma's Hospice","osm_way_id":"385277886","other_tags":{"addr:city":"Leeds","addr:housenumber":"29","addr:postcode":"LS18 5LJ","addr:street":"Town Street","addr:suburb":"Horsforth","phone":"+44 113 258 5761"},"shop":"charity"},"type":"Feature"},
	{"geometry":{"coordinates":[[[[-1.6414608,53.8375702],[-1.6413938,53.8376042],[-1.6413039,53.8375472],[-1.6413723,53.8375116],[-1.6413825,53.8375183],[-1.6414608,53.8375702]]]],"type":"MultiPolygon"},"properties":{"building":"yes","name":"Daniel Hayton Opticians","osm_way_id":"385277888","other_tags":{"addr:city":"Leeds","addr:housenumber":"31","addr:postcode":"LS18 5LJ","addr:street":"Town Street","addr:suburb":"Horsforth","phone":"+44 113 258 6162"},"shop":"optician"},"type":"Feature"},
	{"geometry":{"coordinates":[[[[-1.6410834,53.8377693],[-1.6410161,53.8378012],[-1.6409236,53.8377358],[-1.6409877,53.8377046],[-1.6410834,53.8377693]]]],"type":"MultiPolygon"},"properties":{"building":"yes","name":"Brooks News","osm_way_id":"385277890","other_tags":{"addr:city":"Leeds","addr:housenumber":"39","addr:postcode":"LS18 5LJ","addr:street":"Town Street","addr:suburb":"Horsforth","fhrs:id":"814949","phone":"+44 113 258 1423"},"shop":"newsagent"},"type":"Feature"},
	{"geometry":{"coordinates":[[[[-1.6409236,53.8377358],[-1.6408606,53.837767],[-1.640947,53.8378324],[-1.6410161,53.8378012],[-1.6409236,53.8377358]]]],"type":"MultiPolygon"},"properties":{"building":"yes","name":"Cooplands","osm_way_id":"385277891","other_tags":{"addr:city":"Leeds","addr:housenumber":"41","addr:postcode":"LS18 5LJ","addr:street":"Town Street","addr:suburb":"Horsforth","brand":"Cooplands","brand:wikidata":"Q5167971","brand:wikipedia":"en:Cooplands"},"shop":"bakery"},"type":"Feature"},
	{"geometry":{"coordinates":[[[[-1.640947,53.8378324],[-1.6408813,53.8378651],[-1.6407949,53.8378004],[-1.6408606,53.837767],[-1.640947,53.8378324]]]],"type":"MultiPolygon"},"properties":{"building":"yes","name":"William Hill","osm_way_id":"385277892","other_tags":{"addr:city":"Leeds","addr:housenumber":"43","addr:postcode":"LS18 5LJ","addr:street":"Town Street","addr:suburb":"Horsforth","brand":"William Hill","brand:wikidata":"Q4053147","brand:wikipedia":"en:William Hill (bookmaker)"},"shop":"bookmaker"},"type":"Feature"},
	{"geometry":{"coordinates":[[[[-1.6366094,53.8403877],[-1.6364686,53.8403521],[-1.6365611,53.8402334],[-1.6367113,53.8402635],[-1.6366094,53.8403877]]]],"type":"MultiPolygon"},"properties":{"building":"retail","name":"Keith James Menswear","osm_way_id":"385904033","other_tags":{"addr:city":"Leeds","addr:housenumber":"124-128","addr:postcode":"LS18 4AQ","addr:street":"Town Street","addr:suburb":"Horsforth","opening_hours":"Tu-Sa 10:00-17:00","phone":"+44 113 258 2605","website":"http://keithjamesmenswear.com/"},"shop":"clothes"},"type":"Feature"},
	{"geometry":{"coordinates":[[[[-1.6306162,53.8442151],[-1.6305053,53.8442479],[-1.630282,53.8439844],[-1.630393,53.8439517],[-1.6306162,53.8442151]]]],"type":"MultiPolygon"},"properties":{"building":"yes","name":"Hepworth Select","osm_way_id":"386517617","other_tags":{"addr:city":"Horsforth","addr:postcode":"LS18 5PX","addr:street":"Low Lane","opening_hours":"Mo-Fr 08:30-18:00; Sa 09:00-17:00; Su 10:00-16:00","phone":"+44 113 259 1013","website":"http://www.hepworthselecthorsforth.co.uk/"},"shop":"car"},"type":"Feature"},
	{"geometry":{"coordinates":[[[[-1.6457952,53.8321967],[-1.6455967,53.8321642],[-1.6456354,53.8320819],[-1.6458339,53.8321144],[-1.6457952,53.8321967]]]],"type":"MultiPolygon"},"properties":{"building":"yes","name":"ES Motors","osm_way_id":"386766744","other_tags":{"addr:city":"Horsforth","addr:housenumber":"171","addr:postcode":"LS18 4DR","addr:street":"New Road Side","opening_hours":"Mo-Fr 07:30-17:30; Sa 07:30-14:00; Su Closed","phone":"+44 113 258 7235","website":"http://www.esmotorsvw.co.uk/es-motors-horsforth"},"shop":"car"},"type":"Feature"},
	{"geometry":{"coordinates":[[[[-1.6458339,53.8321144],[-1.6458249,53.8322059],[-1.6456772,53.832361],[-1.6453578,53.832301],[-1.6454923,53.8322367],[-1.6455772,53.8320728],[-1.6456354,53.8320819],[-1.6455967,53.8321642],[-1.6457952,53.8321967],[-1.6458339,53.8321144]]]],"type":"MultiPolygon"},"properties":{"osm_way_id":"386766746","shop":"car"},"type":"Feature"},
	{"geometry":{"coordinates":[[[[-1.6382251,53.8323043],[-1.6379235,53.832068],[-1.6378341,53.8321077],[-1.6378835,53.8321464],[-1.6378289,53.8321707],[-1.6379363,53.8322549],[-1.6379941,53.8322293],[-1.6380491,53.8322724],[-1.6380092,53.8322901],[-1.6380599,53.8323298],[-1.6380966,53.8323135],[-1.6381357,53.8323441],[-1.6382251,53.8323043]]]],"type":"MultiPolygon"},"properties":{"building":"yes","name":"Town Garage","osm_way_id":"389212201","other_tags":{"addr:city":"Horsforth","addr:postcode":"LS18 4NW","addr:street":"Featherbank Lane","opening_hours":"Mo-Fr 08:30-17:00; Sa 08:30-12:00; Su Closed","phone":"+44 113 2582756","website":"https://www.town-garage.com/"},"shop":"car_repair"},"type":"Feature"},
	{"geometry":{"coordinates":[[[[-1.6342229,53.8440963],[-1.6340236,53.8440609],[-1.6339567,53.8441921],[-1.6341559,53.8442275],[-1.6342229,53.8440963]]]],"type":"MultiPolygon"},"properties":{"building":"yes","name":"Go Vehicles Ltd","osm_way_id":"395055474","other_tags":{"addr:city":"Horsforth","addr:postcode":"LS18 5AP","addr:street":"Long Row","phone":"+44 113 2582000","website":"http://www.go-vehicles.co.uk/"},"shop":"car"},"type":"Feature"},
	{"geometry":{"coordinates":[[[[-1.6410866,53.8381666],[-1.6412555,53.8382771],[-1.6411907,53.8383115],[-1.6412451,53.8383471],[-1.6411635,53.8383906],[-1.6411298,53.8383685],[-1.6411023,53.8383506],[-1.6406679,53.8385819],[-1.6405123,53.8386648],[-1.6401138,53.8384042],[-1.6399826,53.8383184],[-1.6400872,53.8382412],[-1.6403509,53.838049],[-1.640529,53.8379491],[-1.6406703,53.8378738],[-1.641104,53.8381574],[-1.6410866,53.8381666]]]],"type":"MultiPolygon"},"properties":{"building":"supermarket","name":"Morrisons","osm_way_id":"561712859","other_tags":{"addr:city":"Leeds","addr:housenumber":"61-69","addr:postcode":"LS18 5BP","addr:street":"Town Street","addr:suburb":"Horsforth","brand":"Morrisons","brand:wikidata":"Q922344","brand:wikipedia":"en:Morrisons","contact:website":"https://my.morrisons.com/storefinder/17","fhrs:id":"320548","opening_hours":"Mo-Sa 08:00-21:00; Su 10:00-16:00","phone":"+44 113 258 1996","smoking":"no"},"shop":"supermarket"},"type":"Feature"},
	{"geometry":{"coordinates":[[[[-1.6303243,53.8373428],[-1.6302535,53.8373123],[-1.63034,53.8372424],[-1.6304111,53.837273],[-1.6303243,53.8373428]]]],"type":"MultiPolygon"},"properties":{"building":"house","name":"Moores Of Horsforth","osm_way_id":"563217836","other_tags":{"addr:city":"Leeds","addr:housenumber":"16","addr:postcode":"LS18 4HD","addr:street":"Alexandra Road","addr:suburb":"Horsforth","fhrs:id":"320520"},"shop":"bakery"},"type":"Feature"}
],"type":"FeatureCollection"}